{
"type": "FeatureCollection",
"name": "PATIOS_SITP",
"crs": { "type": "name", "properties": { "name": "urn:ogc:def:crs:OGC:1.3:CRS84" } },
"features": [
{"type":"Feature","properties":{"cont_oper":"CTO 08-2010","id_conces":"111","nom_conses":"Consorcio Express","nom_func":"SAN CRISTOBAL","comp_sitp":2,"objectid":73,"id_patio":"PZ025","nom_patio":"San Francisco","direccion":"KR 19D 64B 36 SUR","chip":"AAA0020ZCRJ","est_ener":"Diesel","fase_impl":"Fase III","esta_oper":1,"globalid":"{6A309915-BE35-4886-A554-E2281F472C2D}","tip_patio":3,"eta_oper":1,"tip_infra":1,"area_ha":0.9,"latitud":4.55986697,"longitud":-74.14592143,"cap_eq_bia":0,"cap_eq_pad":75,"uso_bia_eq":0,"uso_pad_eq":69,"created_user":null,"created_date":null,"last_edited_user":"editorInfraSTS","last_edited_date":"2026-06-02T14:00:50Z","Shape__Area":8336.5490384229925,"Shape__Length":570.39328507345078},"geometry":{"type":"Polygon","coordinates":[[[-74.145601752912228,4.561045897182461],[-74.145917865592764,4.560934538259291],[-74.145948763604721,4.560747367268275],[-74.146022441509459,4.560204803230463],[-74.146098496979505,4.559695409095169],[-74.146138900889653,4.55943952759952],[-74.146214955983055,4.558899332595277],[-74.14623872351217,4.558773759440873],[-74.146200694901566,4.558771391069463],[-74.146100869498383,4.558733483733076],[-74.145982029221202,4.558735852610918],[-74.14592973995974,4.558752438144054],[-74.145908349587287,4.558906440806587],[-74.145851307865243,4.559335279773353],[-74.145844815583445,4.559359483382837],[-74.145837090975334,4.559407461457583],[-74.145834671484863,4.559456113643904],[-74.145723431132552,4.560201237962566],[-74.145714873880564,4.560249571508629],[-74.145694883926254,4.560385717493206],[-74.145677770842781,4.560497547173734],[-74.145662560436918,4.560613168450787],[-74.145651663153771,4.560683398310315],[-74.145601752912228,4.561045897182461]]]}},
{"type":"Feature","properties":{"cont_oper":"CTO 08-2010","id_conces":"111","nom_conses":"Consorcio Express","nom_func":"SAN CRISTOBAL","comp_sitp":2,"objectid":74,"id_patio":"PZ026","nom_patio":"La Paz (Juan Rey)","direccion":"TV 14 ESTE 72A 43 SUR","chip":"AAA0144ZTRJ/AAA0144ZTSY/AAA0005FXAW/AAA0144ZSPP","est_ener":"Diesel","fase_impl":"Fase III","esta_oper":1,"globalid":"{26A5B9EB-6AF9-47AB-8E54-882121ADC766}","tip_patio":3,"eta_oper":1,"tip_infra":1,"area_ha":0.3,"latitud":4.51942263,"longitud":-74.09151846,"cap_eq_bia":0,"cap_eq_pad":25,"uso_bia_eq":0,"uso_pad_eq":34,"created_user":null,"created_date":null,"last_edited_user":"editorInfraSTS","last_edited_date":"2026-06-02T14:27:14Z","Shape__Area":3929.3845825774347,"Shape__Length":255.3068006772929},"geometry":{"type":"Polygon","coordinates":[[[-74.091820457394164,4.519745143075108],[-74.091808410747987,4.519154714600902],[-74.091535237700825,4.519167009555398],[-74.091301360505966,4.519172696748635],[-74.091151148427343,4.519176487760014],[-74.091164457915625,4.519239040653114],[-74.09123861576559,4.51963141345646],[-74.091820457394164,4.519745143075108]]]}},
{"type":"Feature","properties":{"cont_oper":"CTO 08-2010","id_conces":"111","nom_conses":"Consorcio Express","nom_func":"SAN CRISTOBAL","comp_sitp":2,"objectid":75,"id_patio":"PZ024","nom_patio":"Las Brisas (Cruces)","direccion":"KR 6 CL 1","chip":"AAA0000APWW/AAA0000ASEA/AAA0000AYEA","est_ener":"Diesel","fase_impl":"Fase III","esta_oper":1,"globalid":"{426E650A-B1E2-400F-82D8-CC8DB83EBBB4}","tip_patio":3,"eta_oper":1,"tip_infra":1,"area_ha":1.5,"latitud":4.58511953,"longitud":-74.08152497,"cap_eq_bia":0,"cap_eq_pad":125,"uso_bia_eq":0,"uso_pad_eq":73,"created_user":null,"created_date":null,"last_edited_user":"editorInfraSTS","last_edited_date":"2026-06-02T14:27:14Z","Shape__Area":12771.200438459507,"Shape__Length":844.99521697524324},"geometry":{"type":"MultiPolygon","coordinates":[[[[-74.081190894107138,4.585863137791211],[-74.081754127188219,4.586222526108407],[-74.081822929159912,4.585833217821463],[-74.081937012571771,4.585134306467676],[-74.081937933959438,4.584903629272863],[-74.081756719866775,4.584846208405427],[-74.081642078199721,4.585023555404598],[-74.081509232901055,4.585248668217007],[-74.08142600081446,4.585418612309556],[-74.081295279582974,4.585667377333573],[-74.081190894107138,4.585863137791211]]],[[[-74.081980845572801,4.584200185922884],[-74.081813937496861,4.584080555584507],[-74.081589805612523,4.583975280576189],[-74.081275073358725,4.584472958363898],[-74.081685188192537,4.584755287545496],[-74.081980845572801,4.584200185922884]]],[[[-74.08144198735917,4.585181184349365],[-74.080850656923488,4.584726583666964],[-74.080650901245605,4.584887605366495],[-74.08131412550199,4.585407251145662],[-74.08144198735917,4.585181184349365]]]]}},
{"type":"Feature","properties":{"cont_oper":"CTO 01-2010","id_conces":"104","nom_conses":"Este Es Mi Bus","nom_func":"CALLE 80","comp_sitp":2,"objectid":76,"id_patio":"PZ003","nom_patio":"Bachue Alo Calle 90","direccion":"CL 90A 95H 99","chip":"AAA0211EXMR","est_ener":"Diesel","fase_impl":"Fase III","esta_oper":1,"globalid":"{0AF641C2-26D6-4336-BD5F-D891FE745FD7}","tip_patio":3,"eta_oper":1,"tip_infra":1,"area_ha":4.6,"latitud":4.7195129,"longitud":-74.1040122,"cap_eq_bia":0,"cap_eq_pad":383,"uso_bia_eq":0,"uso_pad_eq":307,"created_user":null,"created_date":null,"last_edited_user":"editorInfraSTS","last_edited_date":"2026-06-02T14:01:04Z","Shape__Area":45789.397753338846,"Shape__Length":1061.2853667194788},"geometry":{"type":"Polygon","coordinates":[[[-74.104029394671372,4.718114547134422],[-74.103729918606135,4.718327735541805],[-74.103530268254545,4.718458016750886],[-74.103418559777111,4.718538554976519],[-74.103290213957337,4.718638041766338],[-74.103024011926891,4.718808593225936],[-74.102767318704963,4.719045468893614],[-74.103026391890666,4.719313133658048],[-74.103261695513297,4.719550006616442],[-74.103468478209876,4.719772667552681],[-74.103482739084171,4.719812935849951],[-74.103492246937833,4.71987215409687],[-74.103470855387144,4.719926635831052],[-74.10344471184176,4.719955061014405],[-74.103844014388059,4.72034353212465],[-74.103535032655984,4.720656206423338],[-74.103739438491942,4.720795960412936],[-74.103499383261607,4.721092053407725],[-74.103998511922015,4.721542109456316],[-74.104050801607514,4.721480523188777],[-74.104160132686346,4.721186798901545],[-74.10436691105933,4.720620671596285],[-74.104485749946448,4.720296152487709],[-74.104568936439463,4.720035592827085],[-74.10462360185268,4.719879255754283],[-74.104825627461423,4.719403137863841],[-74.105120347429079,4.718716202159158],[-74.104640232921327,4.718330099691854],[-74.104454842297301,4.718512493161391],[-74.104029394671372,4.718114547134422]]]}},
{"type":"Feature","properties":{"cont_oper":"CTO 09-2010","id_conces":"101","nom_conses":"Consorcio Express","nom_func":"USAQUEN","comp_sitp":2,"objectid":77,"id_patio":"PZ030","nom_patio":"Suba Lisboa","direccion":"CL 132 144 A 25","chip":"AAA0141UWTO/AAA0141UWUZ/AAA0141UWRU","est_ener":"Diesel","fase_impl":"Fase III","esta_oper":1,"globalid":"{6CCB0DC4-FFE2-4FAC-9279-0A833CC6FEA5}","tip_patio":3,"eta_oper":1,"tip_infra":1,"area_ha":0.6,"latitud":4.74301414,"longitud":-74.11826683,"cap_eq_bia":0,"cap_eq_pad":53,"uso_bia_eq":0,"uso_pad_eq":94,"created_user":null,"created_date":null,"last_edited_user":"editorInfraSTS","last_edited_date":"2026-06-02T14:27:14Z","Shape__Area":6990.8370176404542,"Shape__Length":412.08860444315258},"geometry":{"type":"Polygon","coordinates":[[[-74.118425327916484,4.743672225942405],[-74.118577349023425,4.743403042662622],[-74.118300078419963,4.74324630016338],[-74.118696436262013,4.742586480571817],[-74.118392448592459,4.742299444405046],[-74.117781375942883,4.743265515481325],[-74.117956788008755,4.743398314492191],[-74.118425327916484,4.743672225942405]]]}},
{"type":"Feature","properties":{"cont_oper":"CTO 02-2010","id_conces":"114","nom_conses":"Este Es Mi Bus","nom_func":"TINTAL ZONA FRANCA","comp_sitp":2,"objectid":78,"id_patio":"PZ038","nom_patio":"Calandaima II","direccion":"KR 89 34A 21 SUR","chip":"AAA0139KEDE","est_ener":"Diesel","fase_impl":"Fase III","esta_oper":1,"globalid":"{44AE1CFB-4200-43F8-9AB3-66CAD40555E1}","tip_patio":3,"eta_oper":1,"tip_infra":1,"area_ha":0.9,"latitud":4.64119772,"longitud":-74.16605596,"cap_eq_bia":0,"cap_eq_pad":75,"uso_bia_eq":0,"uso_pad_eq":82,"created_user":null,"created_date":null,"last_edited_user":"editorInfraSTS","last_edited_date":"2026-06-02T14:01:09Z","Shape__Area":6476.9259729593196,"Shape__Length":321.86418695737501},"geometry":{"type":"Polygon","coordinates":[[[-74.166585142453172,4.64117353867799],[-74.166321316286101,4.640858461861192],[-74.166190361791806,4.640697495057391],[-74.165793502166025,4.640980578144278],[-74.165558108843555,4.641260406170542],[-74.165651063226107,4.641379646692243],[-74.165917265255686,4.641711304867957],[-74.166309434450909,4.641386750692986],[-74.166585142453172,4.64117353867799]]]}},
{"type":"Feature","properties":{"cont_oper":"CTO 02-2010","id_conces":"114","nom_conses":"Este Es Mi Bus","nom_func":"TINTAL ZONA FRANCA","comp_sitp":2,"objectid":79,"id_patio":"PZ037","nom_patio":"Calandaima I","direccion":"CL 34 A SUR 91 34","chip":"AAA0183OZNX","est_ener":"Diesel","fase_impl":"Fase III","esta_oper":1,"globalid":"{95A0DDB1-8016-400E-A88B-D369D57A58CA}","tip_patio":3,"eta_oper":1,"tip_infra":1,"area_ha":0.3,"latitud":4.64442949,"longitud":-74.16739605,"cap_eq_bia":0,"cap_eq_pad":28,"uso_bia_eq":0,"uso_pad_eq":50,"created_user":null,"created_date":null,"last_edited_user":"editorInfraSTS","last_edited_date":"2026-06-02T14:01:12Z","Shape__Area":3406.0830038537511,"Shape__Length":244.30607109414248},"geometry":{"type":"Polygon","coordinates":[[[-74.167676107387805,4.644676095817545],[-74.167671354169585,4.644654775536291],[-74.167626195320821,4.644578967674545],[-74.167600049334226,4.644496054035023],[-74.167611932958849,4.644401293612187],[-74.167640453725355,4.644320747701893],[-74.167526367328733,4.644190454083842],[-74.167466946494514,4.644081480695017],[-74.167414657587443,4.644017518363986],[-74.167272050125675,4.644135968432227],[-74.167274427929058,4.644145444381931],[-74.167034372914912,4.644339703253916],[-74.167162718583427,4.644474734622231],[-74.167188863937824,4.644517376693821],[-74.167288690989395,4.644635826639711],[-74.167405153719741,4.644785071591063],[-74.167464574609852,4.644851403203959],[-74.167676107387805,4.644676095817545]]]}},
{"type":"Feature","properties":{"cont_oper":"CTO 03-2010","id_conces":"107","nom_conses":"Etib","nom_func":"BOSA","comp_sitp":2,"objectid":80,"id_patio":"PZ007","nom_patio":"Auto Sur (Guadalupe)","direccion":"AC 57 R SUR 64 B 70","chip":"AAA0052YKJZ","est_ener":"Diesel","fase_impl":"Fase III","esta_oper":1,"globalid":"{2E5C4464-868B-40A6-AF1E-C1684FFAAFAE}","tip_patio":3,"eta_oper":1,"tip_infra":1,"area_ha":1.0,"latitud":4.5972725,"longitud":-74.156408320000011,"cap_eq_bia":0,"cap_eq_pad":83,"uso_bia_eq":0,"uso_pad_eq":167,"created_user":null,"created_date":null,"last_edited_user":"editorInfraSTS","last_edited_date":"2026-06-02T14:01:14Z","Shape__Area":8854.2545060471712,"Shape__Length":415.00850384675448},"geometry":{"type":"Polygon","coordinates":[[[-74.156831753790598,4.597728283504785],[-74.156781838754398,4.597503214374677],[-74.156658243798873,4.59699147983505],[-74.156544155341692,4.596574509598512],[-74.156468097062543,4.596588724746431],[-74.156489488932451,4.596664537037978],[-74.156330243506389,4.596681122542434],[-74.156330243906581,4.596692967198739],[-74.156007000511437,4.596721398230318],[-74.156018884345713,4.596785365119019],[-74.156007001202525,4.596785365524105],[-74.156106828208294,4.597311317664484],[-74.156254192142242,4.597965201822661],[-74.156831753790598,4.597728283504785]]]}},
{"type":"Feature","properties":{"cont_oper":"CTO 04-2010","id_conces":"105","nom_conses":"Gmovil","nom_func":"ENGATIVA","comp_sitp":2,"objectid":81,"id_patio":"PZ014","nom_patio":" La Y","direccion":"KR 120 17 37","chip":"AAA0080CAXR","est_ener":"Diesel","fase_impl":"Fase III","esta_oper":1,"globalid":"{BD1195C5-4E0D-4768-90FB-05AA170CB1DD}","tip_patio":3,"eta_oper":1,"tip_infra":1,"area_ha":0.9,"latitud":4.68648647,"longitud":-74.15798685,"cap_eq_bia":0,"cap_eq_pad":75,"uso_bia_eq":0,"uso_pad_eq":129,"created_user":null,"created_date":null,"last_edited_user":"editorInfraSTS","last_edited_date":"2026-06-02T14:01:16Z","Shape__Area":7777.4781953763122,"Shape__Length":473.62069376032821},"geometry":{"type":"Polygon","coordinates":[[[-74.15799263991866,4.686759129928142],[-74.15826121826214,4.687036283803771],[-74.158425417752142,4.687216772815479],[-74.158760475981069,4.686876507067457],[-74.158387220817758,4.686649012012674],[-74.157477853484593,4.68572959549229],[-74.157233455040313,4.685975232557519],[-74.157350901018404,4.686088747786805],[-74.157707422026817,4.68646776213158],[-74.15799263991866,4.686759129928142]]]}},
{"type":"Feature","properties":{"cont_oper":"CTO 04-2010","id_conces":"105","nom_conses":"Gmovil","nom_func":"ENGATIVA","comp_sitp":2,"objectid":82,"id_patio":"PZ015","nom_patio":"Tintal","direccion":"AK 86 13C 51","chip":"AAA0137OLRU","est_ener":"Diesel","fase_impl":"Fase III","esta_oper":1,"globalid":"{F2CBDC16-19A1-4ADC-8585-9D070C7F9BAB}","tip_patio":3,"eta_oper":1,"tip_infra":1,"area_ha":3.2,"latitud":4.65827435,"longitud":-74.14127182,"cap_eq_bia":0,"cap_eq_pad":267,"uso_bia_eq":0,"uso_pad_eq":324,"created_user":null,"created_date":null,"last_edited_user":"editorInfraSTS","last_edited_date":"2026-06-02T14:01:19Z","Shape__Area":39370.723815365091,"Shape__Length":1009.4090702113499},"geometry":{"type":"Polygon","coordinates":[[[-74.140714135067455,4.656522798485871],[-74.140495470859634,4.656695734657561],[-74.140609558380589,4.656840238447811],[-74.14021976446476,4.657145834826109],[-74.141049271601062,4.658192907743389],[-74.140241163459692,4.65882541877837],[-74.14067849584842,4.659064679680347],[-74.140609569122006,4.659114428292253],[-74.141519884076303,4.659576367405776],[-74.141726664975096,4.659396326850897],[-74.142313730861432,4.659000710139269],[-74.142525265571422,4.658830146071669],[-74.141759932875445,4.657868358095612],[-74.141168106305102,4.657112666382709],[-74.140714135067455,4.656522798485871]]]}},
{"type":"Feature","properties":{"cont_oper":"CTO 04-2010","id_conces":"105","nom_conses":"Gmovil","nom_func":"ENGATIVA","comp_sitp":2,"objectid":83,"id_patio":"PZ013","nom_patio":"Verbena","direccion":"KR 121 65A 90","chip":"AAA0068TYDE/AAA0068TYEP","est_ener":"Diesel","fase_impl":"Fase III","esta_oper":1,"globalid":"{2BD83D37-0307-4CB8-AFD8-47BB3545A8F8}","tip_patio":3,"eta_oper":1,"tip_infra":1,"area_ha":1.5,"latitud":4.71414567,"longitud":-74.13957498,"cap_eq_bia":0,"cap_eq_pad":125,"uso_bia_eq":0,"uso_pad_eq":142,"created_user":null,"created_date":null,"last_edited_user":"editorInfraSTS","last_edited_date":"2026-06-02T14:27:14Z","Shape__Area":11657.526957099846,"Shape__Length":746.88045040054908},"geometry":{"type":"Polygon","coordinates":[[[-74.13863516297053,4.71428512333819],[-74.1387777725066,4.714458042428607],[-74.138984552594721,4.714325391174495],[-74.13947833392335,4.714945297196919],[-74.139698919959244,4.714843589906221],[-74.139979116969542,4.714658131975558],[-74.139749880562448,4.71431117514822],[-74.139707097333456,4.714209317770306],[-74.139692835837067,4.713808999247622],[-74.140829878981137,4.713138282845936],[-74.140764795080813,4.71301114312111],[-74.139790282868489,4.71356738484501],[-74.139626283571118,4.713669241743825],[-74.139635792500187,4.713707142234915],[-74.139055855633785,4.714043507655382],[-74.13863516297053,4.71428512333819]]]}},
{"type":"Feature","properties":{"cont_oper":"CTO 07-2010","id_conces":"112","nom_conses":"Masivo Capital","nom_func":"KENNEDY","comp_sitp":2,"objectid":84,"id_patio":"PZ018","nom_patio":"Brasil 1 - Porvenir","direccion":"KR 89 BIS A 49 C 12 SUR","chip":"AAA0232JNJZ","est_ener":"Diesel","fase_impl":"Fase III","esta_oper":1,"globalid":"{EFF39E14-A23B-4DBA-A290-82B07B5E2314}","tip_patio":3,"eta_oper":1,"tip_infra":1,"area_ha":1.2,"latitud":4.63476322,"longitud":-74.180830050000012,"cap_eq_bia":0,"cap_eq_pad":99,"uso_bia_eq":0,"uso_pad_eq":148,"created_user":null,"created_date":null,"last_edited_user":"editorInfraSTS","last_edited_date":"2026-06-02T14:01:25Z","Shape__Area":11550.855803679235,"Shape__Length":446.41026525899383},"geometry":{"type":"Polygon","coordinates":[[[-74.181598962500502,4.63479323961539],[-74.181331570235145,4.634235335847599],[-74.180323809783332,4.634531468851283],[-74.180166942113658,4.634578850305112],[-74.180112274506158,4.63464044438295],[-74.180197840393319,4.634860764066218],[-74.180418885791781,4.635376026011829],[-74.180921577998305,4.63511661496583],[-74.18138861612421,4.634896293937178],[-74.181598962500502,4.63479323961539]]]}},
{"type":"Feature","properties":{"cont_oper":"CTO 07-2010","id_conces":"112","nom_conses":"Masivo Capital","nom_func":"KENNEDY","comp_sitp":2,"objectid":85,"id_patio":"PZ019","nom_patio":"Brasil - 2","direccion":"CL 49 SUR 89B 31","chip":"AAA0232JNBS","est_ener":"Diesel","fase_impl":"Fase III","esta_oper":1,"globalid":"{6DFFF4E2-B82C-447C-85E7-8E79E6360269}","tip_patio":3,"eta_oper":1,"tip_infra":1,"area_ha":1.4,"latitud":4.63401509,"longitud":-74.18048566,"cap_eq_bia":0,"cap_eq_pad":113,"uso_bia_eq":0,"uso_pad_eq":119,"created_user":null,"created_date":null,"last_edited_user":"editorInfraSTS","last_edited_date":"2026-06-02T14:01:26Z","Shape__Area":9762.4847837369343,"Shape__Length":428.3153814964756},"geometry":{"type":"Polygon","coordinates":[[[-74.181279280333584,4.634081349698672],[-74.18129829424997,4.634010278188078],[-74.18110814906855,4.633801804141277],[-74.180941773448438,4.633650188591584],[-74.180894236276799,4.633678616161636],[-74.180827685761216,4.633664402020325],[-74.180775397489271,4.633607545822797],[-74.180708845733292,4.633541212739345],[-74.180271516149631,4.633744952109487],[-74.180005315283182,4.633877618494716],[-74.179739114996593,4.634015023359289],[-74.179843695667941,4.634270877868581],[-74.179929261523171,4.634479352953396],[-74.181279280333584,4.634081349698672]]]}},
{"type":"Feature","properties":{"cont_oper":"CTO 07-2010","id_conces":"112","nom_conses":"Masivo Capital","nom_func":"KENNEDY","comp_sitp":2,"objectid":86,"id_patio":"PZ020","nom_patio":"San Bernardino XIX","direccion":"CL 73 SUR 94A 95","chip":"AAA0140ERFT","est_ener":"Diesel","fase_impl":"Fase III","esta_oper":1,"globalid":"{A46CA4FF-84CF-405A-9160-811B9736E222}","tip_patio":3,"eta_oper":1,"tip_infra":1,"area_ha":4.2,"latitud":4.62954198,"longitud":-74.204838630000012,"cap_eq_bia":0,"cap_eq_pad":350,"uso_bia_eq":0,"uso_pad_eq":354,"created_user":null,"created_date":null,"last_edited_user":"editorInfraSTS","last_edited_date":"2026-06-02T14:01:29Z","Shape__Area":43990.329735220512,"Shape__Length":948.58185409477028},"geometry":{"type":"Polygon","coordinates":[[[-74.203613941474131,4.629347067606862],[-74.203211095958792,4.629549213285205],[-74.203664033090917,4.630670777678386],[-74.204365112882925,4.630401655893301],[-74.205148663742548,4.630060097941384],[-74.205715703591153,4.62979099992155],[-74.206452859567761,4.629475313076031],[-74.206065364997713,4.628390952730553],[-74.203655542044018,4.629426369823305],[-74.203613941474131,4.629347067606862]]]}},
{"type":"Feature","properties":{"cont_oper":"CTO 10-2010","id_conces":"108","nom_conses":"Suma","nom_func":"CIUDAD BOLIVAR","comp_sitp":2,"objectid":88,"id_patio":"PZ034","nom_patio":"Alameda El Jardin","direccion":"KR 17 70 31 SUR","chip":"AAA0023NJKC","est_ener":"Diesel","fase_impl":"Fase III","esta_oper":1,"globalid":"{7A052918-C67E-4FA9-BD85-5ADA5CD41365}","tip_patio":3,"eta_oper":1,"tip_infra":1,"area_ha":2.3,"latitud":4.54801902,"longitud":-74.13808916000001,"cap_eq_bia":0,"cap_eq_pad":192,"uso_bia_eq":0,"uso_pad_eq":240,"created_user":null,"created_date":null,"last_edited_user":"editorInfraSTS","last_edited_date":"2026-06-02T15:09:29Z","Shape__Area":22841.897611298129,"Shape__Length":669.07213312117381},"geometry":{"type":"Polygon","coordinates":[[[-74.137114478479944,4.548921363731038],[-74.137116855379915,4.548961641584842],[-74.137164391370007,4.548942686887616],[-74.137406824297344,4.548831327879666],[-74.137528040889194,4.548772095303996],[-74.139141883306834,4.548042338443923],[-74.139106230514514,4.547921503727038],[-74.138961242941818,4.54726520454064],[-74.138880431693664,4.547281791086108],[-74.138592839667467,4.547355240237142],[-74.138217306537953,4.54744527634731],[-74.13780612007956,4.547547159021816],[-74.137306993701898,4.547670365211101],[-74.137318878016316,4.547781723903811],[-74.137311748348083,4.547881234072362],[-74.137297488300717,4.548082626418669],[-74.137223809510232,4.548461716457323],[-74.137114478479944,4.548921363731038]]]}},
{"type":"Feature","properties":{"cont_oper":"CTO 08-2010","id_conces":"111","nom_conses":"Consorcio Express","nom_func":"SAN CRISTOBAL","comp_sitp":2,"objectid":89,"id_patio":"PZ027","nom_patio":"Gaviotas","direccion":"KR 15 ESTE 47B 50 SUR","chip":"AAA0006NBZM","est_ener":"Diesel","fase_impl":"Fase III","esta_oper":1,"globalid":"{80D2D38E-5760-4A46-891F-FEC6BDFA062E}","tip_patio":3,"eta_oper":1,"tip_infra":1,"area_ha":2.2,"latitud":4.53405934,"longitud":-74.08248236,"cap_eq_bia":0,"cap_eq_pad":183,"uso_bia_eq":0,"uso_pad_eq":176,"created_user":null,"created_date":null,"last_edited_user":"editorInfraSTS","last_edited_date":"2026-06-02T14:01:33Z","Shape__Area":18340.36193932579,"Shape__Length":847.85639399736579},"geometry":{"type":"MultiPolygon","coordinates":[[[[-74.081816749217992,4.532948398478939],[-74.081657586641612,4.532876366378366],[-74.081439132559723,4.533142578283558],[-74.08163262986109,4.533759559040482],[-74.081922869132896,4.534151040634407],[-74.082075791135779,4.534263786680456],[-74.082169414525296,4.534273182795677],[-74.082553268613538,4.533618613343852],[-74.082225581137976,4.533440099702566],[-74.082244304133638,4.533380593993112],[-74.082004000254315,4.533274112703372],[-74.081816749217992,4.532948398478939]]],[[[-74.082282834540507,4.5344180719425],[-74.082930309500099,4.534766431234825],[-74.083314764864156,4.534984106260437],[-74.083736077192398,4.535109375378719],[-74.083770586585729,4.53471235105809],[-74.082830197921751,4.53413171116364],[-74.082633432138906,4.534037523895232],[-74.082565756733032,4.534072737405495],[-74.082489703492854,4.534086500669445],[-74.082282834540507,4.5344180719425]]]]}},
{"type":"Feature","properties":{"cont_oper":"CTO 09-2010","id_conces":"101","nom_conses":"Consorcio Express","nom_func":"USAQUEN","comp_sitp":3,"objectid":90,"id_patio":"PZ028","nom_patio":"Casablanca Calle 191","direccion":"AK 45 191 11","chip":"AAA0141DHHY","est_ener":"Diesel","fase_impl":"Fase III","esta_oper":1,"globalid":"{F1FD9030-0E48-4298-A19A-140470C214D6}","tip_patio":3,"eta_oper":1,"tip_infra":1,"area_ha":7.2,"latitud":4.76921939,"longitud":-74.04597318,"cap_eq_bia":0,"cap_eq_pad":600,"uso_bia_eq":0,"uso_pad_eq":661,"created_user":null,"created_date":null,"last_edited_user":"editorInfraSTS","last_edited_date":"2026-06-02T14:01:34Z","Shape__Area":61543.055475296576,"Shape__Length":1159.7728047887238},"geometry":{"type":"Polygon","coordinates":[[[-74.047695420505832,4.770366142881915],[-74.048143892164504,4.769271243184305],[-74.047553743180856,4.769114142363378],[-74.047503773339102,4.769028480645884],[-74.046459188947239,4.768712017355075],[-74.046156997049849,4.768628736889657],[-74.045276596150856,4.768359863889624],[-74.044153488849204,4.768026744223975],[-74.0439756195575,4.769078342819808],[-74.044010641743384,4.769181628996853],[-74.044175199765178,4.769346728109459],[-74.04556325282185,4.769770288056892],[-74.047695420505832,4.770366142881915]]]}},
{"type":"Feature","properties":{"cont_oper":"CTO 01-2010","id_conces":"104","nom_conses":"Este Es Mi Bus","nom_func":"UF1 - SUBA CENTRO I","comp_sitp":2,"objectid":91,"id_patio":"PZ001","nom_patio":"Las Mercedes","direccion":"CL 171 93 95","chip":"AAA0141DTDM","est_ener":"Electrico","fase_impl":"Fase V","esta_oper":1,"globalid":"{571B371B-5F82-4277-B351-A3505F6A4C7D}","tip_patio":1,"eta_oper":1,"tip_infra":1,"area_ha":1.3,"latitud":4.76576535,"longitud":-74.0800852,"cap_eq_bia":0,"cap_eq_pad":98,"uso_bia_eq":0,"uso_pad_eq":98,"created_user":null,"created_date":null,"last_edited_user":"editorInfraSTS","last_edited_date":"2026-06-02T14:01:35Z","Shape__Area":12940.312415953325,"Shape__Length":534.60769154870093},"geometry":{"type":"Polygon","coordinates":[[[-74.080309804877828,4.766424279138151],[-74.08064847007833,4.766084519670155],[-74.080891736340604,4.765830897538782],[-74.080396266293178,4.76529521467779],[-74.080210666796987,4.765295215432496],[-74.080050053757404,4.765366600215573],[-74.079881647258347,4.765487370990903],[-74.079736218263562,4.76523530409527],[-74.079118055633998,4.765716771421401],[-74.079329129758804,4.765960820689566],[-74.079516649779947,4.76576756980629],[-74.079736961479341,4.765935696036908],[-74.080309804877828,4.766424279138151]]]}},
{"type":"Feature","properties":{"cont_oper":"CTO 07-2010","id_conces":"112","nom_conses":"Masivo Capital","nom_func":"KENNEDY","comp_sitp":2,"objectid":92,"id_patio":"PZ021","nom_patio":"Tierra Buena","direccion":"AK 89 37 A 15 SUR","chip":"AAA0139KECN","est_ener":"Diesel","fase_impl":"Fase III","esta_oper":1,"globalid":"{5D7BEEB5-9932-46B3-98D6-5C6D9BC16178}","tip_patio":3,"eta_oper":1,"tip_infra":1,"area_ha":0.9,"latitud":4.64067629,"longitud":-74.16671064000001,"cap_eq_bia":0,"cap_eq_pad":75,"uso_bia_eq":0,"uso_pad_eq":40,"created_user":null,"created_date":null,"last_edited_user":"editorInfraSTS","last_edited_date":"2026-06-02T14:01:36Z","Shape__Area":6276.5471944091951,"Shape__Length":314.06246047571437},"geometry":{"type":"Polygon","coordinates":[[[-74.166585142453172,4.64117353867799],[-74.167171154155398,4.64070382247626],[-74.167171154164478,4.640575331028512],[-74.166888196938714,4.640193958342583],[-74.166529662421183,4.640418207163367],[-74.166190361791806,4.640697495057391],[-74.166585142453172,4.64117353867799]]]}},
{"type":"Feature","properties":{"cont_oper":"CTO 07-2010","id_conces":"112","nom_conses":"Masivo Capital","nom_func":"KENNEDY","comp_sitp":2,"objectid":93,"id_patio":"PZ023","nom_patio":"Maria Juana","direccion":"AC 71 B SUR 10 71","chip":"AAA0158LCMR","est_ener":"Diesel","fase_impl":"Fase III","esta_oper":1,"globalid":"{150DC838-2D67-48E8-9058-01C561D69064}","tip_patio":3,"eta_oper":1,"tip_infra":1,"area_ha":0.9,"latitud":4.53804853,"longitud":-74.13227687,"cap_eq_bia":0,"cap_eq_pad":78,"uso_bia_eq":0,"uso_pad_eq":79,"created_user":null,"created_date":null,"last_edited_user":"editorInfraSTS","last_edited_date":"2026-06-02T14:01:36Z","Shape__Area":9480.3796556216748,"Shape__Length":500.75013246914813},"geometry":{"type":"Polygon","coordinates":[[[-74.13159076944973,4.538224958976666],[-74.132105038420164,4.538632147409444],[-74.132451907459298,4.538194261247273],[-74.132497693795699,4.538127653356504],[-74.13256684352875,4.538216177535845],[-74.1326884577351,4.538450647357129],[-74.132774305212536,4.538656410696825],[-74.132802915820278,4.538644444454402],[-74.132752823151037,4.538345365118322],[-74.132798108142708,4.53815634140854],[-74.13282431890228,4.537964926347546],[-74.132810010502894,4.537912289239046],[-74.132755866839815,4.537831748106115],[-74.132660704472087,4.537719494066734],[-74.132380993097556,4.537374403618629],[-74.13200841274616,4.53782463103503],[-74.13159076944973,4.538224958976666]]]}},
{"type":"Feature","properties":{"cont_oper":"CTO 06-2010","id_conces":"102","nom_conses":"Masivo Capital","nom_func":"SUBA ORIENTAL","comp_sitp":2,"objectid":94,"id_patio":"PZ017","nom_patio":"Suba Salitre","direccion":"KR 92 165 49","chip":"AAA0144KDRU","est_ener":"Diesel","fase_impl":"Fase III","esta_oper":1,"globalid":"{39F89C79-979B-4606-87D6-874C9EB34E61}","tip_patio":3,"eta_oper":1,"tip_infra":1,"area_ha":1.3,"latitud":4.7583362,"longitud":-74.07852538,"cap_eq_bia":0,"cap_eq_pad":104,"uso_bia_eq":0,"uso_pad_eq":152,"created_user":null,"created_date":null,"last_edited_user":"editorInfraSTS","last_edited_date":"2026-06-02T14:01:37Z","Shape__Area":18001.620844178593,"Shape__Length":557.85815070455146},"geometry":{"type":"Polygon","coordinates":[[[-74.078878021505716,4.758825825979367],[-74.07939254912371,4.758224778936175],[-74.07935907702884,4.758088169891307],[-74.079288747651717,4.757983778685953],[-74.07914963673916,4.757805932591528],[-74.079032679696141,4.757664648455874],[-74.078892290788431,4.757517122820307],[-74.07852823457057,4.757800279161059],[-74.078240321129584,4.758016812221031],[-74.077933372625608,4.758242862098088],[-74.077731118074212,4.758390389931058],[-74.077652596113793,4.758468912736139],[-74.07756455714059,4.758585506856844],[-74.077464621431318,4.758790140675281],[-74.077918591831903,4.758889404522077],[-74.078878021505716,4.758825825979367]]]}},
{"type":"Feature","properties":{"cont_oper":"CTO 10-2010","id_conces":"108","nom_conses":"Suma","nom_func":"CIUDAD BOLIVAR","comp_sitp":2,"objectid":95,"id_patio":"PZ035","nom_patio":"Turquesa","direccion":"AC 71 SUR 3J 21","chip":"AAA0181UTTD","est_ener":"Diesel","fase_impl":"Fase III","esta_oper":1,"globalid":"{55980038-9DA4-48F6-A89F-1E9937C3A294}","tip_patio":3,"eta_oper":1,"tip_infra":1,"area_ha":2.8,"latitud":4.52430209,"longitud":-74.12675088,"cap_eq_bia":0,"cap_eq_pad":234,"uso_bia_eq":0,"uso_pad_eq":220,"created_user":null,"created_date":null,"last_edited_user":"editorInfraSTS","last_edited_date":"2026-06-02T14:01:38Z","Shape__Area":16073.381893010022,"Shape__Length":544.55497026860417},"geometry":{"type":"Polygon","coordinates":[[[-74.12656250980271,4.525392189555321],[-74.127076470937993,4.524628379328664],[-74.127319174143338,4.524228629354077],[-74.127347723639829,4.523593312490786],[-74.126683855111636,4.523571901267692],[-74.12641973560379,4.523950236553188],[-74.1260556790713,4.524128698226686],[-74.126305524344588,4.524664076108104],[-74.12656250980271,4.525392189555321]]]}},
{"type":"Feature","properties":{"cont_oper":"CTO 03-2010","id_conces":"107","nom_conses":"Etib","nom_func":"BOSA","comp_sitp":2,"objectid":96,"id_patio":"PZ011","nom_patio":"Alimentadores","direccion":"CL 63 SUR 80 22 SUR","chip":"AAA0045YATD/AAA0045YBCX","est_ener":"Diesel","fase_impl":"Fase III","esta_oper":1,"globalid":"{09694C95-F8ED-4746-A87D-E66DD0B9ADE9}","tip_patio":3,"eta_oper":1,"tip_infra":1,"area_ha":0.8,"latitud":4.70724131,"longitud":-74.13703667,"cap_eq_bia":0,"cap_eq_pad":67,"uso_bia_eq":0,"uso_pad_eq":103,"created_user":null,"created_date":null,"last_edited_user":"editorInfraSTS","last_edited_date":"2026-06-02T14:27:14Z","Shape__Area":4111.2399260521343,"Shape__Length":337.38466845672622},"geometry":{"type":"Polygon","coordinates":[[[-74.137412510232309,4.706842162174703],[-74.136981232888402,4.7070682128232],[-74.136933644733489,4.707074161808248],[-74.136805748411575,4.707163391729568],[-74.136868209633434,4.707222877199848],[-74.136787903000112,4.707303185677186],[-74.136719493219744,4.707246673165883],[-74.136457753366713,4.7074459550989],[-74.136731392800911,4.707674975855272],[-74.136951491737179,4.707410259855773],[-74.137576098899856,4.70716933659514],[-74.137412510232309,4.706842162174703]]]}},
{"type":"Feature","properties":{"cont_oper":"CTO 03-2010","id_conces":"107","nom_conses":"Etib","nom_func":"BOSA","comp_sitp":2,"objectid":97,"id_patio":"PZ008","nom_patio":"San Jose I","direccion":"TV 80 I 93 25 SUR","chip":"AAA0231SFMR/AAA0140ETLW/AAA0140ETKL/AAA0140ETMS","est_ener":"Diesel","fase_impl":"Fase III","esta_oper":1,"globalid":"{2A5242C7-FEFC-4FB7-8059-2BD78F5E31C6}","tip_patio":3,"eta_oper":1,"tip_infra":1,"area_ha":3.2,"latitud":4.61502236,"longitud":-74.21519831000001,"cap_eq_bia":0,"cap_eq_pad":267,"uso_bia_eq":0,"uso_pad_eq":273,"created_user":null,"created_date":null,"last_edited_user":"editorInfraSTS","last_edited_date":"2026-06-02T14:27:14Z","Shape__Area":30208.950697529399,"Shape__Length":1285.9020593358839},"geometry":{"type":"MultiPolygon","coordinates":[[[[-74.216082608998306,4.616107606079799],[-74.216177787569578,4.616196835451461],[-74.216261068647569,4.616125451179982],[-74.215826810646789,4.614935721587344],[-74.215582914119608,4.614400345445757],[-74.214440772708627,4.61440034968285],[-74.214357491198655,4.614370607677425],[-74.214232569834437,4.614608553416035],[-74.214440773217575,4.614727525652005],[-74.214648977149864,4.614858395806245],[-74.214690618695315,4.614947623978535],[-74.214809592317138,4.61500711077418],[-74.215095129462853,4.615352132206169],[-74.213911349477073,4.615810183008772],[-74.214232576888293,4.616006487166525],[-74.21527358907052,4.6156138712585],[-74.215648357122348,4.616155195872572],[-74.215797074025772,4.616089761013559],[-74.21591604610704,4.616042171211868],[-74.216082608998306,4.616107606079799]]],[[[-74.214535950354403,4.614186197477666],[-74.214504994384214,4.614255848744444],[-74.215547221886496,4.614257577513182],[-74.214958300619301,4.613454512451001],[-74.214535950354403,4.614186197477666]]]]}},
{"type":"Feature","properties":{"cont_oper":"CTO 03-2010","id_conces":"107","nom_conses":"Etib","nom_func":"BOSA","comp_sitp":2,"objectid":98,"id_patio":"PZ009","nom_patio":"San Jose II","direccion":"TV 80 I 93 22 SUR","chip":"AAA0140EWCM/AAA0140EWDE/AAA0140EWFZ/AAA0210ASEP","est_ener":"Diesel","fase_impl":"Fase III","esta_oper":1,"globalid":"{F28DEDAC-C894-4EF8-BFD9-8AB93AF19DD8}","tip_patio":3,"eta_oper":1,"tip_infra":1,"area_ha":1.3,"latitud":4.61343239,"longitud":-74.21196982,"cap_eq_bia":0,"cap_eq_pad":108,"uso_bia_eq":0,"uso_pad_eq":158,"created_user":null,"created_date":null,"last_edited_user":"editorInfraSTS","last_edited_date":"2026-06-02T14:27:14Z","Shape__Area":11336.283629785488,"Shape__Length":582.68159697642818},"geometry":{"type":"Polygon","coordinates":[[[-74.212516382066966,4.614145161748429],[-74.212409301939914,4.61291974045548],[-74.212019664086668,4.612774000100181],[-74.211978023321507,4.612878102912566],[-74.21198694750845,4.613023844063694],[-74.2116151574714,4.613157690520799],[-74.211653823291144,4.613249895530174],[-74.211564594959682,4.613258817108307],[-74.211525927906166,4.613169587268237],[-74.211160086551814,4.613327229240699],[-74.211502135219902,4.61375255498917],[-74.211811466167234,4.613868553643802],[-74.211942336148724,4.613874501826715],[-74.212085104561581,4.613945883473699],[-74.212085102727229,4.613663322417413],[-74.212272486211432,4.613651425961726],[-74.212323051400176,4.614085676023469],[-74.212516382066966,4.614145161748429]]]}},
{"type":"Feature","properties":{"cont_oper":"CTO 03-2010","id_conces":"107","nom_conses":"Etib","nom_func":"UF3 - PERDOMO I","comp_sitp":2,"objectid":99,"id_patio":"PZ006","nom_patio":"Perdomo I- Sevillana","direccion":"KR 61 45 A 72 SUR","chip":"AAA0016WDEA/AAA0016WDFT","est_ener":"Diesel-electrico","fase_impl":"Fase III","esta_oper":1,"globalid":"{4D97BEAC-4908-4F51-8D3C-9AD02145C5A7}","tip_patio":3,"eta_oper":1,"tip_infra":1,"area_ha":0.9,"latitud":4.59266352,"longitud":-74.14728247,"cap_eq_bia":0,"cap_eq_pad":75,"uso_bia_eq":0,"uso_pad_eq":124,"created_user":null,"created_date":null,"last_edited_user":"editorInfraSTS","last_edited_date":"2026-06-02T14:27:14Z","Shape__Area":9418.4327253074098,"Shape__Length":530.86268305541546},"geometry":{"type":"Polygon","coordinates":[[[-74.147229914464219,4.592616452906147],[-74.147274705324634,4.591892637418548],[-74.14702434220375,4.591878307743057],[-74.147020771294436,4.591939321023737],[-74.146927779504566,4.591939330081225],[-74.146773998685461,4.592057783498421],[-74.14677402935807,4.592366435557825],[-74.14677762923472,4.592596131005278],[-74.146874197027302,4.59259612161825],[-74.146932661076349,4.592599462782323],[-74.14692428754617,4.592761209494602],[-74.147149993399239,4.592764803824907],[-74.147121039520229,4.593159567159448],[-74.147191047245286,4.593175203085349],[-74.147793052141807,4.5933536594233],[-74.147866814045969,4.593072882709063],[-74.147945334302378,4.592830176990864],[-74.147517604308263,4.592705955084591],[-74.147229914464219,4.592616452906147]]]}},
{"type":"Feature","properties":{"cont_oper":"CTO 07-2010","id_conces":"112","nom_conses":"Masivo Capital","nom_func":"KENNEDY","comp_sitp":2,"objectid":101,"id_patio":"PZ022","nom_patio":"Magdalena","direccion":"CL 26 SUR 93 D 50","chip":"AAA0161PJNN","est_ener":"Diesel","fase_impl":"Fase III","esta_oper":1,"globalid":"{2F94155C-4BBD-4F03-922F-F3AA3444742A}","tip_patio":3,"eta_oper":1,"tip_infra":1,"area_ha":1.2,"latitud":4.65314027,"longitud":-74.17184052,"cap_eq_bia":0,"cap_eq_pad":100,"uso_bia_eq":0,"uso_pad_eq":151,"created_user":null,"created_date":null,"last_edited_user":"editorInfraSTS","last_edited_date":"2026-06-02T13:58:13Z","Shape__Area":12220.95802539061,"Shape__Length":478.87116971435694},"geometry":{"type":"Polygon","coordinates":[[[-74.172713400392013,4.653486081446609],[-74.172556354031471,4.653257655361402],[-74.172317216817163,4.652947136322836],[-74.172056664178967,4.652665170900644],[-74.170935938556397,4.652829359384541],[-74.171606951168613,4.653600301521359],[-74.172713400392013,4.653486081446609]]]}},
{"type":"Feature","properties":{"cont_oper":"CTO 03-2010","id_conces":"107","nom_conses":"Etib","nom_func":"BOSA","comp_sitp":2,"objectid":102,"id_patio":"PZ010","nom_patio":"San Bernardino","direccion":"CL 84 89 21 SUR","chip":"AAA0140EMJZ/AAA0140EPSK/AAA0140EMEP/AAA0188OZWF","est_ener":"Diesel","fase_impl":"Fase III","esta_oper":1,"globalid":"{0B3D939F-2342-4B1F-8209-8665810164F4}","tip_patio":3,"eta_oper":1,"tip_infra":1,"area_ha":4.0,"latitud":4.62077054,"longitud":-74.20756789,"cap_eq_bia":0,"cap_eq_pad":333,"uso_bia_eq":0,"uso_pad_eq":256,"created_user":null,"created_date":null,"last_edited_user":"editorInfraSTS","last_edited_date":"2026-06-02T14:27:14Z","Shape__Area":18578.519799131798,"Shape__Length":648.87962284174898},"geometry":{"type":"Polygon","coordinates":[[[-74.208326636487556,4.621004492491402],[-74.208338533205435,4.620909313666737],[-74.208350430770423,4.620897417104788],[-74.208255246795318,4.619945633097259],[-74.207928072472214,4.620082453706117],[-74.207672280759041,4.620237119342204],[-74.207565205526777,4.620320401367928],[-74.207464079410542,4.620379888128967],[-74.207321311037205,4.620397735491491],[-74.20714880033978,4.620409632491563],[-74.206887059396436,4.620504813541927],[-74.206631269554791,4.620552403286595],[-74.206901521571382,4.621187200096741],[-74.207053934241927,4.621150252966077],[-74.207144597212832,4.62143256865135],[-74.207229604460721,4.621666873824426],[-74.207618748137477,4.621551772671291],[-74.20753300228256,4.621137255333144],[-74.208326636487556,4.621004492491402]]]}},
{"type":"Feature","properties":{"cont_oper":"CTO-07-2020","id_conces":"225","nom_conses":"Gran Americas Usme","nom_func":"UF14 - USME III","comp_sitp":2,"objectid":103,"id_patio":"PZ046","nom_patio":"USME III- El Uval","direccion":"CL 115S 8I 45 ESTE","chip":"AAA0143HELF/AAA0143MXSY/AAA0142YONX/AAA0143MUFT","est_ener":"Gnv-diesel","fase_impl":"Fase V","esta_oper":1,"globalid":"{67F20CC3-C157-48B4-9DC6-65638FAC462C}","tip_patio":1,"eta_oper":1,"tip_infra":1,"area_ha":2.36,"latitud":4.48612862,"longitud":-74.10709264,"cap_eq_bia":0,"cap_eq_pad":240,"uso_bia_eq":0,"uso_pad_eq":230,"created_user":null,"created_date":null,"last_edited_user":"editorInfraSTS","last_edited_date":"2026-06-02T14:27:14Z","Shape__Area":22238.834489443067,"Shape__Length":1079.5579517832302},"geometry":{"type":"MultiPolygon","coordinates":[[[[-74.107110316580204,4.486737607773252],[-74.107179195909794,4.486485771672982],[-74.107208423683247,4.486355978847407],[-74.107237741008902,4.486056779104438],[-74.10723987933838,4.485859235284688],[-74.107240903617111,4.485764596090348],[-74.107213980492119,4.485708952045039],[-74.107134263221937,4.48566740749125],[-74.107041602911067,4.485619119080024],[-74.106964109514564,4.485578733747751],[-74.106893873387705,4.485542130859713],[-74.1067946182432,4.485560902073206],[-74.106720411294887,4.485550122913017],[-74.106649335538506,4.485539799394451],[-74.106582520260488,4.485513789471779],[-74.106501197753872,4.485482131775177],[-74.106462313014106,4.485605570346067],[-74.10640770497892,4.485778916807939],[-74.106352160836607,4.485955238494496],[-74.106314068878874,4.486076155797978],[-74.106294830994102,4.486137226676871],[-74.106284651404664,4.486220502623503],[-74.106254687953225,4.486320684591514],[-74.106207966974793,4.486476048445173],[-74.106155682646033,4.486649428253081],[-74.106110257405064,4.48680626246269],[-74.106244171011454,4.486855998981741],[-74.106306170381529,4.486632541504674],[-74.106326841388238,4.486559407927957],[-74.106347395029516,4.486549470516072],[-74.106541270184152,4.48661642545671],[-74.106566267899538,4.486585155099552],[-74.106804211192994,4.486676400795351],[-74.106843108235338,4.4866129263524],[-74.107110316580204,4.486737607773252]]],[[[-74.107275184532583,4.485680663520111],[-74.107347669382975,4.485619925940931],[-74.107418876056443,4.485569867448691],[-74.107454167025764,4.48548590408175],[-74.107457058111677,4.485409607006813],[-74.107461087807934,4.48530322879024],[-74.107452088003967,4.485191285960649],[-74.107418751563799,4.48514539973115],[-74.10736169796445,4.485110219737302],[-74.107228560004899,4.48502812251758],[-74.107179268432304,4.485112345981911],[-74.107078582332647,4.485284390345832],[-74.106991511821818,4.485450717977915],[-74.106949913224668,4.485530179903184],[-74.107275184532583,4.485680663520111]]],[[[-74.107125383094314,4.486892206837325],[-74.107520246866187,4.486742955419279],[-74.10769593725216,4.486683901908947],[-74.107859732129668,4.486631797598319],[-74.108165634038187,4.486544026585649],[-74.108139418317876,4.486470911204358],[-74.108088066093018,4.486339922602061],[-74.108022528315772,4.486225252931061],[-74.10795906647374,4.486151160631207],[-74.107839621220052,4.486059221308564],[-74.107720753043523,4.485976304280819],[-74.107634158225764,4.485919569403761],[-74.107541111009027,4.48588628635158],[-74.107455804894073,4.48585577107441],[-74.107299372377938,4.485788813038686],[-74.107283044367122,4.485923334904758],[-74.107279630013451,4.486050706738478],[-74.107277038881307,4.486147333677747],[-74.107270055973444,4.486243442624049],[-74.107240455512951,4.486426088991358],[-74.107202676240547,4.486611341921844],[-74.107125383094314,4.486892206837325]]]]}},
{"type":"Feature","properties":{"cont_oper":"CTO 761-2019","id_conces":"227","nom_conses":"E-Somos Fontibon","nom_func":"UF4 - FONTIBON II","comp_sitp":2,"objectid":104,"id_patio":"PZ040","nom_patio":"Fontibon II - Aeropuerto","direccion":"KR 100 24D 15","chip":"AAA0078DWHY","est_ener":"Electrico","fase_impl":"Fase V","esta_oper":1,"globalid":"{12358DDE-2EF2-4B05-8FDC-B9EF01EA5D6C}","tip_patio":1,"eta_oper":1,"tip_infra":1,"area_ha":1.5,"latitud":4.68329229,"longitud":-74.1336002,"cap_eq_bia":0,"cap_eq_pad":126,"uso_bia_eq":0,"uso_pad_eq":126,"created_user":null,"created_date":null,"last_edited_user":"editorInfraSTS","last_edited_date":"2026-06-02T13:58:15Z","Shape__Area":14648.10408728226,"Shape__Length":561.49584067292164},"geometry":{"type":"Polygon","coordinates":[[[-74.134012736102463,4.684103282558282],[-74.134049434052756,4.684063532521359],[-74.134053907587557,4.684067988591825],[-74.134184898150764,4.683937338871452],[-74.134239210021562,4.683883163676549],[-74.134510725991959,4.683612341901105],[-74.134083320371062,4.683165670816615],[-74.134069805378644,4.683177628676722],[-74.13396844652604,4.683267311714656],[-74.133747209154706,4.683034319982779],[-74.133699357622532,4.682983925810861],[-74.133652747296608,4.682934840070339],[-74.133594953566003,4.682873974796296],[-74.13353013763745,4.682811188424096],[-74.133509397948828,4.6827910972538],[-74.133489951731519,4.682772261159575],[-74.133456896589507,4.682740240430854],[-74.133421247300177,4.682705708643077],[-74.13341217318191,4.68269691768085],[-74.133395969206916,4.682681221988286],[-74.13337652569966,4.682662386794862],[-74.133336986996085,4.682624086155302],[-74.133323767508969,4.682611793135787],[-74.133309547452185,4.682597940263618],[-74.133305670647843,4.682594161467527],[-74.133280108618948,4.682569256136174],[-74.133233282310684,4.68252362936378],[-74.133223846746887,4.682514488460403],[-74.133210596576646,4.682501653760307],[-74.13315550471728,4.682448285855257],[-74.132691723283045,4.682957371435121],[-74.132705773711578,4.682968947284288],[-74.132821892908424,4.683068910323034],[-74.132869984325282,4.683110310283972],[-74.133526537198136,4.683675509604785],[-74.134012736102463,4.684103282558282]]]}},
{"type":"Feature","properties":{"cont_oper":"CTO 01-2010","id_conces":"104","nom_conses":"Este Es Mi Bus","nom_func":"CALLE 80","comp_sitp":2,"objectid":105,"id_patio":"PZ002","nom_patio":"Bachue","direccion":"TV 94L 80 53","chip":"AAA0215CRYN","est_ener":"Diesel","fase_impl":"Fase III","esta_oper":1,"globalid":"{62E7D94C-0DA9-4135-A47B-699D26821893}","tip_patio":3,"eta_oper":1,"tip_infra":1,"area_ha":1.2,"latitud":4.70853033,"longitud":-74.10875838,"cap_eq_bia":0,"cap_eq_pad":100,"uso_bia_eq":0,"uso_pad_eq":84,"created_user":null,"created_date":null,"last_edited_user":"editorInfraSTS","last_edited_date":"2026-06-02T13:58:16Z","Shape__Area":8648.3322941502447,"Shape__Length":390.35683945047953},"geometry":{"type":"Polygon","coordinates":[[[-74.108128933007492,4.708533817197191],[-74.108791942410619,4.709190861612985],[-74.109073213898427,4.708752731508091],[-74.109077552479519,4.708742631093576],[-74.109085406801682,4.708724227162057],[-74.109092939340073,4.708705688503135],[-74.109100149193594,4.708687020542731],[-74.109107032757265,4.708668230515449],[-74.1091135873273,4.708649322942986],[-74.109119813805222,4.708630301442538],[-74.10912570768474,4.708611174153085],[-74.109131266262182,4.708591948309231],[-74.109136491340379,4.708572626623814],[-74.109141380215689,4.708553216331448],[-74.109145929283059,4.708533723762443],[-74.109150139444125,4.708514155246919],[-74.109154008896425,4.708494514402235],[-74.109157536739062,4.708474810271462],[-74.109160718465532,4.708455046472086],[-74.109163557681541,4.708435230238406],[-74.109166050782065,4.708415367900727],[-74.109168198668655,4.708395463980546],[-74.109170001341695,4.708375525712383],[-74.109171454294838,4.708355560330856],[-74.109172561133576,4.708335570548755],[-74.109173320956998,4.708315564504874],[-74.109173731061375,4.708295548529525],[-74.109173794151104,4.708275529857034],[-74.10917350842368,4.708255512104703],[-74.109172873879487,4.708235502507023],[-74.109171893222836,4.708215507394017],[-74.109170562848661,4.708195532191673],[-74.10916888546123,4.708175582325749],[-74.109166862863674,4.708155666839228],[-74.109164494154768,4.708135787540757],[-74.109161777532293,4.708115954377813],[-74.109158717503135,4.708096170967408],[-74.109155314969044,4.708076445448285],[-74.109151569028867,4.708056781437715],[-74.109147480584198,4.708037184361472],[-74.109143054142237,4.70801766507108],[-74.109138286999041,4.707998223566627],[-74.109134974923322,4.707985666494045],[-74.109133182760374,4.707978869795343],[-74.109127742327829,4.707959608278742],[-74.109121969307111,4.707940446251074],[-74.109115862797012,4.707921386425324],[-74.109109425501984,4.707902437844435],[-74.109100255070331,4.70787713752701],[-74.109085296955726,4.707887251084246],[-74.108967248970728,4.707967060723007],[-74.108944833424189,4.707982214323758],[-74.108900003229564,4.708012522427373],[-74.1088701158302,4.708032729636831],[-74.108840230231635,4.708052934131988],[-74.108787927275401,4.708088294030266],[-74.108526418724125,4.708265091653782],[-74.108511475013842,4.708275195250647],[-74.108128933007492,4.708533817197191]]]}},
{"type":"Feature","properties":{"cont_oper":"CTO 760-2019","id_conces":"226","nom_conses":"Gran Americas Fontibon I","nom_func":"UF2 - FONTIBON I","comp_sitp":2,"objectid":106,"id_patio":"PZ039","nom_patio":"El Refugio","direccion":"AK 116 19A 49","chip":"AAA0268FZRU","est_ener":"Electrico","fase_impl":"Fase V","esta_oper":1,"globalid":"{6E6878BA-9F1D-41E9-B169-FD5A48266946}","tip_patio":1,"eta_oper":1,"tip_infra":1,"area_ha":1.2,"latitud":4.68792312,"longitud":-74.15319491,"cap_eq_bia":0,"cap_eq_pad":101,"uso_bia_eq":0,"uso_pad_eq":101,"created_user":null,"created_date":null,"last_edited_user":"editorInfraSTS","last_edited_date":"2026-06-02T13:58:16Z","Shape__Area":8167.3218046757065,"Shape__Length":383.65967761264886},"geometry":{"type":"Polygon","coordinates":[[[-74.152545317963373,4.68808856335257],[-74.152930516673621,4.68848835805656],[-74.153453223992827,4.688092247978143],[-74.153831379049834,4.687798754297751],[-74.153452190818214,4.687338381644254],[-74.152545317963373,4.68808856335257]]]}},
{"type":"Feature","properties":{"cont_oper":"CTO 762-2019","id_conces":"224","nom_conses":"E-Somos Alimentacion","nom_func":"UF5 - USME I","comp_sitp":2,"objectid":107,"id_patio":"PZ041","nom_patio":"Usme II","direccion":"KR 14 139 64 SUR","chip":"AAA0020ORWW/AAA0137LLHK","est_ener":"Electrico","fase_impl":"Fase V","esta_oper":1,"globalid":"{103331BF-F743-43D8-BBB3-C4D3F23B1049}","tip_patio":1,"eta_oper":1,"tip_infra":1,"area_ha":1.7,"latitud":4.46729213,"longitud":-74.12764642,"cap_eq_bia":0,"cap_eq_pad":129,"uso_bia_eq":0,"uso_pad_eq":129,"created_user":null,"created_date":null,"last_edited_user":"editorInfraSTS","last_edited_date":"2026-06-02T13:58:17Z","Shape__Area":20493.142804777734,"Shape__Length":950.36342035318626},"geometry":{"type":"Polygon","coordinates":[[[-74.128447894658265,4.467959801581051],[-74.128467984939647,4.467788774509554],[-74.128476995511321,4.467648482223665],[-74.128403229264137,4.467643338186154],[-74.128401789404052,4.467643237002982],[-74.128381794453986,4.467641879207277],[-74.128383057340869,4.467623530588132],[-74.128388371721414,4.467546241212775],[-74.128483572772694,4.467552934659877],[-74.12847789990235,4.467527444250803],[-74.128482319872219,4.467298292578388],[-74.12848970710742,4.467254178722017],[-74.128502318365818,4.467181500839156],[-74.128502408469203,4.467181500832893],[-74.128356682634887,4.467079532368066],[-74.128147281808523,4.466900451991289],[-74.128286979351373,4.466762062383706],[-74.128344984913042,4.466705838967744],[-74.128409834480351,4.466659286710667],[-74.128455769862086,4.466643378444088],[-74.128428572583246,4.466531740052063],[-74.128420018198483,4.466466744882729],[-74.128411274879724,4.466366618934039],[-74.128359032953853,4.466379178056018],[-74.128210018078548,4.46641500283125],[-74.128088543711058,4.46644420790633],[-74.12809775924525,4.466453977479455],[-74.128109263569968,4.46646617407338],[-74.128123096333809,4.466480840188018],[-74.127982261203556,4.466506391344743],[-74.127827724035797,4.466544923939137],[-74.127774837890897,4.46655810975353],[-74.127599178506856,4.466607370721373],[-74.12754987133755,4.466635035247402],[-74.127045634555969,4.466909053144338],[-74.126961506901281,4.467313385776666],[-74.126943798564895,4.467362535535447],[-74.126914161994293,4.467500839706648],[-74.12686182218296,4.467843344036864],[-74.126821946698385,4.467975355771037],[-74.127239465610955,4.468150027460684],[-74.127579632465611,4.468322168502701],[-74.127631962434521,4.468263775177729],[-74.127655028362511,4.467990060354254],[-74.127390507900273,4.467762889403288],[-74.127818162592632,4.46729013634052],[-74.128013167553021,4.467020311792947],[-74.128225363416902,4.467134217197318],[-74.128092691182758,4.46723355712357],[-74.128029912538111,4.467338866109859],[-74.128062061643234,4.467447160019739],[-74.128063139258174,4.46757841298764],[-74.128172836051505,4.46771491342274],[-74.12827659134922,4.467810465104779],[-74.128447894658265,4.467959801581051]]]}},
{"type":"Feature","properties":{"cont_oper":"CTO 04-2020","id_conces":"228","nom_conses":"Emasivo 10","nom_func":"UF10 - SUBA CENTRO III","comp_sitp":2,"objectid":108,"id_patio":"PZ042","nom_patio":"San Andres - UF10","direccion":"Lote 3 San Andres (Municipio de Cota) Sentido occidente oriente 500 mt antes del puente de guadua","chip":" ","est_ener":"Gnv-diesel","fase_impl":"Fase V","esta_oper":1,"globalid":"{65711444-93C5-4A73-811D-F9D17769F1B9}","tip_patio":1,"eta_oper":1,"tip_infra":1,"area_ha":2.4,"latitud":4.73255505,"longitud":-74.1319719,"cap_eq_bia":0,"cap_eq_pad":192,"uso_bia_eq":0,"uso_pad_eq":192,"created_user":null,"created_date":null,"last_edited_user":"editorInfraSTS","last_edited_date":"2026-06-02T13:58:17Z","Shape__Area":15237.478110002749,"Shape__Length":682.92145354336549},"geometry":{"type":"MultiPolygon","coordinates":[[[[-74.131848094962066,4.733361693729142],[-74.132764036081412,4.732602593643312],[-74.132436249935481,4.731810611158581],[-74.131337829415145,4.732732746313838],[-74.131848094962066,4.733361693729142]]],[[[-74.131355457906679,4.73254022063942],[-74.131547396380029,4.732370859677368],[-74.131128505737081,4.731831459395064],[-74.130937921312167,4.732002796954291],[-74.131355457906679,4.73254022063942]]]]}},
{"type":"Feature","properties":{"cont_oper":"CTO 09-2010","id_conces":"101","nom_conses":"Consorcio Express","nom_func":"USAQUEN","comp_sitp":2,"objectid":109,"id_patio":"PZ029","nom_patio":"Bosa Ciudadela El Recreo II","direccion":"KR 95 A 74 65 SUR","chip":"AAA0239YULW/AAA0239YUFT/AAA0239YUKL/AAA0239YUMS","est_ener":"Diesel","fase_impl":"Fase III","esta_oper":1,"globalid":"{9386C8BD-8C0A-46EB-9F8A-39CE549564FE}","tip_patio":3,"eta_oper":1,"tip_infra":1,"area_ha":1.1,"latitud":4.63041349,"longitud":-74.20617489,"cap_eq_bia":0,"cap_eq_pad":92,"uso_bia_eq":0,"uso_pad_eq":158,"created_user":null,"created_date":null,"last_edited_user":"editorInfraSTS","last_edited_date":"2026-06-02T14:27:14Z","Shape__Area":12394.319092191587,"Shape__Length":452.74004411449448},"geometry":{"type":"Polygon","coordinates":[[[-74.205802360422283,4.631029250500615],[-74.206887233981362,4.630574444579626],[-74.206600949824335,4.629820812221465],[-74.205444533101385,4.630227778264497],[-74.205802360422283,4.631029250500615]]]}},
{"type":"Feature","properties":{"cont_oper":"CTO 09-2010","id_conces":"101","nom_conses":"Consorcio Express","nom_func":"USAQUEN","comp_sitp":2,"objectid":112,"id_patio":"PZ032","nom_patio":"Engativa - Villa Gladys - Eds","direccion":"CL 64 112C 40","chip":"AAA0068YJXS/AAA0068YJYN/AAA0068YJZE/AAA0068YKAF","est_ener":"Diesel","fase_impl":"Fase III","esta_oper":1,"globalid":"{2871A62B-DD4B-481C-ACF9-0229C0D8673F}","tip_patio":3,"eta_oper":1,"tip_infra":1,"area_ha":0.4,"latitud":4.60831039,"longitud":-74.18373491,"cap_eq_bia":0,"cap_eq_pad":36,"uso_bia_eq":0,"uso_pad_eq":94,"created_user":null,"created_date":null,"last_edited_user":"editorInfraSTS","last_edited_date":"2026-06-02T14:27:14Z","Shape__Area":1859.9146028542004,"Shape__Length":195.15401486179024},"geometry":{"type":"Polygon","coordinates":[[[-74.183934938424613,4.608032776748855],[-74.183404594954396,4.608391766389859],[-74.183546646285265,4.608594121494425],[-74.184071314585623,4.608208645379078],[-74.183934938424613,4.608032776748855]]]}},
{"type":"Feature","properties":{"cont_oper":"CTO 10-2010","id_conces":"108","nom_conses":"Suma","nom_func":"CIUDAD BOLIVAR","comp_sitp":2,"objectid":113,"id_patio":"PZ036","nom_patio":"Prosperidad","direccion":"AC 71 SUR 3 I 17","chip":"AAA0225YTAF/AAA0158LCNX","est_ener":"Diesel","fase_impl":"Fase III","esta_oper":1,"globalid":"{7D89D9E3-B501-4AA3-B5D2-329A3C470D65}","tip_patio":3,"eta_oper":1,"tip_infra":1,"area_ha":1.5,"latitud":4.52355715,"longitud":-74.12591489,"cap_eq_bia":0,"cap_eq_pad":128,"uso_bia_eq":0,"uso_pad_eq":100,"created_user":null,"created_date":null,"last_edited_user":"editorInfraSTS","last_edited_date":"2026-06-02T13:58:19Z","Shape__Area":4910.8832994537652,"Shape__Length":286.67495591681438},"geometry":{"type":"Polygon","coordinates":[[[-74.125984550262984,4.524017722127845],[-74.126209995870937,4.523873202353172],[-74.126354511608127,4.523676658345539],[-74.12579956281445,4.52308125090025],[-74.125470064917934,4.523399189353476],[-74.125984550262984,4.524017722127845]]]}},
{"type":"Feature","properties":{"cont_oper":"CTO 02-2010","id_conces":"114","nom_conses":"Este Es Mi Bus","nom_func":"TINTAL ZONA FRANCA","comp_sitp":2,"objectid":115,"id_patio":"PZ004","nom_patio":"Santa Paz","direccion":"KR 90 A 10 61","chip":"AAA0137ONCX/AAA0137ONBR/AAA0137ONAF","est_ener":"Diesel","fase_impl":"Fase III","esta_oper":1,"globalid":"{D81DE398-F0D6-400C-928A-C5005DF6B6E4}","tip_patio":3,"eta_oper":1,"tip_infra":1,"area_ha":1.2,"latitud":4.65579374,"longitud":-74.15216134000001,"cap_eq_bia":0,"cap_eq_pad":98,"uso_bia_eq":0,"uso_pad_eq":65,"created_user":null,"created_date":null,"last_edited_user":"editorInfraSTS","last_edited_date":"2026-06-02T14:27:14Z","Shape__Area":4546.2290663214317,"Shape__Length":278.50300094687509},"geometry":{"type":"Polygon","coordinates":[[[-74.152093130473958,4.655341397173747],[-74.151726099555887,4.655648002129537],[-74.15223326631525,4.656241912983255],[-74.152596054818432,4.655950210325308],[-74.152093130473958,4.655341397173747]]]}},
{"type":"Feature","properties":{"cont_oper":"CTO 04-2021","id_conces":"231","nom_conses":"ZMO Fontibon III","nom_func":"UF6 - FONTIBON III","comp_sitp":2,"objectid":117,"id_patio":"PZ047","nom_patio":"FONTIBON III- Venecia","direccion":"AC 31 135B 20","chip":"AAAO140JXBS","est_ener":"Electrico","fase_impl":"Fase V","esta_oper":1,"globalid":"{CC85A558-E15B-45FE-B5C3-693CFD2B2B5D}","tip_patio":1,"eta_oper":1,"tip_infra":1,"area_ha":2.0,"latitud":4.70093992,"longitud":-74.16421604,"cap_eq_bia":0,"cap_eq_pad":148,"uso_bia_eq":0,"uso_pad_eq":148,"created_user":null,"created_date":null,"last_edited_user":"editorInfraSTS","last_edited_date":"2026-06-02T13:58:20Z","Shape__Area":20396.763703584693,"Shape__Length":1015.5717178603568},"geometry":{"type":"Polygon","coordinates":[[[-74.163196798431173,4.701476922247626],[-74.163738849071791,4.701872082036464],[-74.163834763588667,4.701855590059217],[-74.163977562591128,4.701774530126079],[-74.165474777784738,4.700336655761373],[-74.16261424058834,4.700082948483987],[-74.162578720049808,4.700133159973855],[-74.164017710945018,4.700258852490522],[-74.164141810596291,4.7002863253088],[-74.164214879890693,4.700364580415829],[-74.164211369398572,4.700489928719235],[-74.163196798431173,4.701476922247626]]]}},
{"type":"Feature","properties":{"cont_oper":"CTO 109-2021","id_conces":"232","nom_conses":"Mueve Fontibon","nom_func":"UF7 - FONTIBON IV","comp_sitp":2,"objectid":118,"id_patio":"PZ049","nom_patio":"FONTIBON IV- Escritorio IV","direccion":"AC 31 135B 20","chip":"AAAO140JXBS","est_ener":"Electrico","fase_impl":"Fase V","esta_oper":1,"globalid":"{DB651E14-AFF2-405B-8A2D-92FF2BEDB91B}","tip_patio":1,"eta_oper":1,"tip_infra":1,"area_ha":2.2,"latitud":4.69986542,"longitud":-74.16479628,"cap_eq_bia":0,"cap_eq_pad":144,"uso_bia_eq":0,"uso_pad_eq":144,"created_user":null,"created_date":null,"last_edited_user":"editorInfraSTS","last_edited_date":"2026-06-02T13:58:21Z","Shape__Area":22971.544112379168,"Shape__Length":912.15194430811721},"geometry":{"type":"Polygon","coordinates":[[[-74.16261424058834,4.700082948483987],[-74.165474777784738,4.700336655761373],[-74.166366926999459,4.699520916057068],[-74.164607884897521,4.699327315152527],[-74.163962747283577,4.699974029583861],[-74.162770834220495,4.699868914119326],[-74.16261424058834,4.700082948483987]]]}},
{"type":"Feature","properties":{"cont_oper":"CTO 1224-2021","id_conces":"234","nom_conses":"Operadora Distrital De Transporte","nom_func":"UF8 - PERDOMO II","comp_sitp":2,"objectid":119,"id_patio":"PZ052","nom_patio":"Perdomo II","direccion":"CL 59A SUR 76A 82","chip":"AAA0018PUZM","est_ener":"Electrico","fase_impl":"Fase V","esta_oper":1,"globalid":"{2AD5E177-B1AD-472F-AA7C-0C601D5835E2}","tip_patio":1,"eta_oper":1,"tip_infra":1,"area_ha":2.4,"latitud":4.59263165,"longitud":-74.18196114,"cap_eq_bia":0,"cap_eq_pad":133,"uso_bia_eq":0,"uso_pad_eq":133,"created_user":null,"created_date":null,"last_edited_user":"editorInfraSTS","last_edited_date":"2026-06-02T13:58:21Z","Shape__Area":31752.060891410605,"Shape__Length":786.91224280518145},"geometry":{"type":"Polygon","coordinates":[[[-74.183009713637858,4.593398018760724],[-74.182659925315079,4.59170622446542],[-74.180332816780151,4.592470041788792],[-74.180960995272955,4.592826957970562],[-74.181560621484309,4.593155319646474],[-74.18207458549611,4.593426577168494],[-74.183009713637858,4.593398018760724]]]}},
{"type":"Feature","properties":{"cont_oper":"CTO 110-2021","id_conces":"230","nom_conses":"Mueve Usme","nom_func":"UF13 - USME II","comp_sitp":2,"objectid":120,"id_patio":"PZ050","nom_patio":"Usme II","direccion":"CL 137 SUR 1a","chip":"AAA0142ZNZE","est_ener":"Electrico","fase_impl":"Fase V","esta_oper":1,"globalid":"{3B5B8730-67FF-4831-A938-753441C5F142}","tip_patio":1,"eta_oper":1,"tip_infra":1,"area_ha":3.9,"latitud":4.47080431,"longitud":-74.12210493000001,"cap_eq_bia":0,"cap_eq_pad":203,"uso_bia_eq":0,"uso_pad_eq":203,"created_user":null,"created_date":null,"last_edited_user":"editorInfraSTS","last_edited_date":"2026-06-02T13:58:22Z","Shape__Area":37195.534072399911,"Shape__Length":831.53780114116228},"geometry":{"type":"Polygon","coordinates":[[[-74.121380104686423,4.472052616286252],[-74.121781389829465,4.471868920531399],[-74.122143578936544,4.471525910326715],[-74.122510820072208,4.471231149306518],[-74.122849067888012,4.470946052493603],[-74.123134163480984,4.470709275431548],[-74.12318731664196,4.470665784561655],[-74.123501404735279,4.470530484954062],[-74.122863558416853,4.469583389620739],[-74.122114579656156,4.470061774334464],[-74.121868141294058,4.470255062010768],[-74.121578214850445,4.470429019796915],[-74.120800243089974,4.470931565474645],[-74.121380104686423,4.472052616286252]]]}},
{"type":"Feature","properties":{"cont_oper":"CTO 06-2021","id_conces":"233","nom_conses":"ZMO Fontibon V","nom_func":"UF17 - FONTIBON V","comp_sitp":2,"objectid":121,"id_patio":"PZ048","nom_patio":"FONTIBON V- Venecia","direccion":"AC 31 135B 20","chip":"AAA0140JXBS","est_ener":"Electrico","fase_impl":"Fase V","esta_oper":1,"globalid":"{F10F08E8-8748-4600-8554-6B2931F373B8}","tip_patio":1,"eta_oper":1,"tip_infra":1,"area_ha":2.0,"latitud":4.7006796,"longitud":-74.16316551,"cap_eq_bia":0,"cap_eq_pad":148,"uso_bia_eq":0,"uso_pad_eq":148,"created_user":null,"created_date":null,"last_edited_user":"editorInfraSTS","last_edited_date":"2026-06-02T13:58:22Z","Shape__Area":19946.05783527653,"Shape__Length":580.72761743184992},"geometry":{"type":"Polygon","coordinates":[[[-74.163196798431173,4.701476922247626],[-74.16395740541509,4.700736989941698],[-74.164211369398572,4.700489928719235],[-74.16421810877182,4.700367280276179],[-74.164146115299275,4.700286111357089],[-74.164017710945018,4.700258852490522],[-74.162578720049808,4.700133159973855],[-74.162149938945731,4.700715615159276],[-74.163196798431173,4.701476922247626]]]}},
{"type":"Feature","properties":{"cont_oper":"CTO 05-2020","id_conces":"229","nom_conses":"Emasivo 16","nom_func":"UF16 - SUBA CENTRO VI","comp_sitp":2,"objectid":122,"id_patio":"PZ044","nom_patio":"San Andres - UF16","direccion":"Lote 3 San Andres (Municipio de Cota) Sentido occidente oriente 500 mt antes del puente de guadua","chip":" ","est_ener":"Gnv","fase_impl":"Fase V","esta_oper":1,"globalid":"{ED03594C-9B0D-47D6-B03C-4460E39622A0}","tip_patio":1,"eta_oper":1,"tip_infra":1,"area_ha":0.64,"latitud":4.73159976,"longitud":-74.13175387,"cap_eq_bia":0,"cap_eq_pad":189,"uso_bia_eq":0,"uso_pad_eq":36,"created_user":null,"created_date":null,"last_edited_user":"editorInfraSTS","last_edited_date":"2026-06-02T13:58:23Z","Shape__Area":21685.113074335291,"Shape__Length":854.00103217709773},"geometry":{"type":"Polygon","coordinates":[[[-74.131266302680103,4.732632776183362],[-74.131337829415145,4.732732746313838],[-74.132437076953906,4.731805079445404],[-74.132311443603044,4.730681939754781],[-74.132105340525783,4.730513804613877],[-74.131985242559779,4.730489257607245],[-74.131898792264508,4.730588126894978],[-74.131776538044448,4.730850640620051],[-74.131436151466076,4.731218175892697],[-74.130767464002872,4.73198132555668],[-74.131086984038078,4.732402604097278],[-74.131266302680103,4.732632776183362]],[[-74.130937921312167,4.732002796954291],[-74.131128505737081,4.731831459395064],[-74.131547396380029,4.732370859677368],[-74.131355457906679,4.73254022063942],[-74.130937921312167,4.732002796954291]]]}},
{"type":"Feature","properties":{"cont_oper":"CTO 05-2020","id_conces":"229","nom_conses":"Emasivo 16","nom_func":"UF16 - SUBA CENTRO VI","comp_sitp":2,"objectid":124,"id_patio":"PZ045","nom_patio":"Suba La Gaitana","direccion":"KR 129 132 30","chip":"AAA0169KHEP/AAA0154EDDE","est_ener":"Diesel","fase_impl":"Fase V","esta_oper":1,"globalid":"{38FDDB4B-747E-4617-A21F-8600A7489821}","tip_patio":1,"eta_oper":1,"tip_infra":1,"area_ha":1.6,"latitud":4.74094838,"longitud":-74.11328767000001,"cap_eq_bia":0,"cap_eq_pad":36,"uso_bia_eq":0,"uso_pad_eq":189,"created_user":null,"created_date":null,"last_edited_user":"editorInfraSTS","last_edited_date":"2026-06-02T13:58:23Z","Shape__Area":5168.3315650140357,"Shape__Length":408.31058749223212},"geometry":{"type":"Polygon","coordinates":[[[-74.113333238242788,4.741270939268883],[-74.113788255756205,4.740606627688805],[-74.113639916434352,4.740494332253515],[-74.113564726842327,4.740437414559236],[-74.113513800600415,4.740398862073679],[-74.113486840234359,4.740378452358241],[-74.113220555583212,4.740737114436937],[-74.112939566843863,4.741120880735245],[-74.1127246125113,4.741426910206911],[-74.112927489530023,4.741568436582121],[-74.112956471451866,4.741548217498432],[-74.113028926225994,4.74160309528001],[-74.113086890848081,4.741525112074363],[-74.112991250063573,4.741455791894396],[-74.112956470877563,4.741377808030376],[-74.113136158588603,4.74114096614224],[-74.113333238242788,4.741270939268883]]]}},
{"type":"Feature","properties":{"cont_oper":"CTO 04-2010","id_conces":"105","nom_conses":"Gmovil","nom_func":"ENGATIVA TRONCAL","comp_sitp":1,"objectid":126,"id_patio":"PT002","nom_patio":"Patio El Dorado","direccion":"CL 24 D 86 53","chip":"AAA0158LCMR","est_ener":"Diesel","fase_impl":"Fase III","esta_oper":1,"globalid":"{4C35C62A-654A-495E-9042-D46204072048}","tip_patio":1,"eta_oper":1,"tip_infra":1,"area_ha":5.4,"latitud":4.67503197,"longitud":-74.12463835,"cap_eq_bia":125,"cap_eq_pad":0,"uso_bia_eq":201,"uso_pad_eq":0,"created_user":null,"created_date":null,"last_edited_user":"editorInfraSTS","last_edited_date":"2026-06-02T13:58:24Z","Shape__Area":54604.206523896981,"Shape__Length":1044.8333189491993},"geometry":{"type":"Polygon","coordinates":[[[-74.126510002248494,4.67488253308031],[-74.126149856680428,4.674104946619827],[-74.125863706755126,4.674243741660237],[-74.125758773856219,4.674152828776821],[-74.125658619774867,4.67416958527435],[-74.125484539135215,4.674188738719717],[-74.125255610257341,4.674193539958127],[-74.125043372697732,4.674162451588142],[-74.124850211689633,4.674114613160629],[-74.124685664718669,4.674050022240509],[-74.124499652809703,4.673961507421075],[-74.124356564667011,4.673868204080867],[-74.123266864116601,4.675208167935671],[-74.123209635551873,4.675277559289946],[-74.123202483095781,4.675308664364001],[-74.123250201639166,4.675662774128093],[-74.123145316567573,4.676239409885077],[-74.123216868785121,4.676409285059488],[-74.123431482614293,4.676313562592096],[-74.123457714968794,4.67631595367288],[-74.123524486683309,4.676318342090584],[-74.123960869050833,4.676119721642038],[-74.124008560827548,4.676088612966905],[-74.12403955818391,4.676047935097388],[-74.125091168026472,4.675562151140706],[-74.125994930264099,4.67514576347718],[-74.126011621479947,4.675121835214599],[-74.126083156317293,4.675057227340345],[-74.126095082157349,4.675069190519209],[-74.126510002248494,4.67488253308031]]]}},
{"type":"Feature","properties":{"cont_oper":"CTO 697-2018","id_conces":"216","nom_conses":"Si-18 Calle 80","nom_func":"AUTOPISTA MEDELLIN TRONCAL","comp_sitp":1,"objectid":127,"id_patio":"PT007","nom_patio":"Patio Calle 80","direccion":"AC 80 96 91","chip":" ","est_ener":"Gnv-diesel sin operar","fase_impl":"Fase IV","esta_oper":1,"globalid":"{0730A173-B700-4F22-9D4A-21D6359A2FBC}","tip_patio":1,"eta_oper":1,"tip_infra":1,"area_ha":2.4,"latitud":4.7077597,"longitud":-74.11133921,"cap_eq_bia":72,"cap_eq_pad":0,"uso_bia_eq":80,"uso_pad_eq":0,"created_user":null,"created_date":null,"last_edited_user":"editorInfraSTS","last_edited_date":"2026-06-02T13:58:24Z","Shape__Area":30432.447216795685,"Shape__Length":794.02511427794116},"geometry":{"type":"Polygon","coordinates":[[[-74.111200077123442,4.706370877592081],[-74.110435099603961,4.707864908171901],[-74.110661632771851,4.708083303206151],[-74.111248704114715,4.708654175560708],[-74.111888065219205,4.709270054948507],[-74.112063948540822,4.709085289756949],[-74.112014034171949,4.708827093278367],[-74.111930844450029,4.708315438055481],[-74.111847653481419,4.707867740007677],[-74.111719303234707,4.707147631279924],[-74.111659882554378,4.706811264115813],[-74.111636112788588,4.706519904422427],[-74.111645619076725,4.706351720720785],[-74.111353272766451,4.706342247901044],[-74.111200077123442,4.706370877592081]]]}},
{"type":"Feature","properties":{"cont_oper":"CTO 08-2010","id_conces":"111","nom_conses":"Consorcio Express","nom_func":"SAN CRISTOBAL","comp_sitp":1,"objectid":128,"id_patio":"PT003","nom_patio":"Patio 20 De Julio","direccion":"KR 5 A 30 C 20 SUR","chip":"AAA0016RTFZ","est_ener":"Diesel","fase_impl":"Fase III","esta_oper":1,"globalid":"{42B40765-40F2-4AD3-8B30-8B75C2A0E74C}","tip_patio":1,"eta_oper":1,"tip_infra":1,"area_ha":6.6,"latitud":4.56454864,"longitud":-74.09628032,"cap_eq_bia":158,"cap_eq_pad":0,"uso_bia_eq":325,"uso_pad_eq":0,"created_user":null,"created_date":null,"last_edited_user":"editorInfraSTS","last_edited_date":"2026-06-02T13:58:25Z","Shape__Area":66134.770372998406,"Shape__Length":1127.9798275198423},"geometry":{"type":"Polygon","coordinates":[[[-74.097646604388501,4.564515840122425],[-74.097858138786506,4.564328666908979],[-74.097729791540928,4.564186512704953],[-74.0976513564394,4.564072787740161],[-74.097584805007244,4.563963801932686],[-74.09748497891303,4.563771892546411],[-74.097446949753746,4.563688969104546],[-74.097378022557294,4.563565766654563],[-74.097323355302692,4.56347810507154],[-74.097180746279776,4.563288564308451],[-74.096762428249193,4.562807606491678],[-74.096657848450903,4.56269862070819],[-74.095992348197839,4.563283831986959],[-74.095859248842544,4.563603683303198],[-74.095735656191081,4.563838240553634],[-74.095429052485684,4.564357109002732],[-74.095300706352745,4.564570343522353],[-74.095227025845119,4.564667484723515],[-74.095048766550832,4.564885455404948],[-74.094834856845452,4.565153182144279],[-74.094806335121817,4.565183983696173],[-74.094811089793637,4.565228999323831],[-74.094830103892775,4.565255060229719],[-74.095331610359381,4.565804725790455],[-74.095300712950745,4.565826050231899],[-74.095331609901777,4.565859217816154],[-74.095333987127333,4.565894758118516],[-74.095312597262023,4.565930296298292],[-74.095117699667952,4.566112728850552],[-74.095086801800008,4.566153007659718],[-74.095079672333,4.566209869156788],[-74.095098686028308,4.566254885335986],[-74.095250801658722,4.566418363089527],[-74.095284077278549,4.566434947345241],[-74.09559543753933,4.56631885304486],[-74.095733291383155,4.566188542735269],[-74.096308473898262,4.565688626993832],[-74.096947828568261,4.565117633753496],[-74.097646604388501,4.564515840122425]]]}},
{"type":"Feature","properties":{"cont_oper":"CTO 695-2018","id_conces":"217","nom_conses":"Si-18 Norte","nom_func":"AUTOPISTA NORTE TRONCAL","comp_sitp":1,"objectid":129,"id_patio":"PT006","nom_patio":"Patio Norte","direccion":"AC 183 51 65","chip":" ","est_ener":"Gnv","fase_impl":"Fase IV","esta_oper":1,"globalid":"{77315DF9-8776-42D6-9CA5-B7B935901120}","tip_patio":1,"eta_oper":1,"tip_infra":1,"area_ha":4.3,"latitud":4.76111425,"longitud":-74.05031392,"cap_eq_bia":96,"cap_eq_pad":0,"uso_bia_eq":52,"uso_pad_eq":0,"created_user":null,"created_date":null,"last_edited_user":"editorInfraSTS","last_edited_date":"2026-06-02T13:58:26Z","Shape__Area":35605.814726366487,"Shape__Length":858.62889806025703},"geometry":{"type":"Polygon","coordinates":[[[-74.051521617889875,4.760357916354346],[-74.051231646673514,4.759941045208738],[-74.050665967732186,4.759746821675102],[-74.05037124680382,4.760137643397688],[-74.050002846607441,4.760618470418101],[-74.049665342031446,4.761042450139198],[-74.049582155148869,4.761172723919816],[-74.049451432789127,4.761388265554189],[-74.04949659316118,4.761700920617231],[-74.049375376890964,4.761850141664706],[-74.049130567767946,4.762134373318005],[-74.049610682595954,4.762520452369628],[-74.049591669171534,4.762544138105519],[-74.049720015576327,4.762643618855564],[-74.049843608592852,4.762525188588087],[-74.050231025081814,4.762044362440237],[-74.050744410122959,4.761366941963248],[-74.051521617889875,4.760357916354346]]]}},
{"type":"Feature","properties":{"cont_oper":"CTO 18-2003","id_conces":"7","nom_conses":"Connexion Movil","nom_func":"AUTOPISTA SUR TRONCAL","comp_sitp":1,"objectid":130,"id_patio":"PT001","nom_patio":"Patio Sur","direccion":"AC 57 R SUR 72","chip":" ","est_ener":"Diesel","fase_impl":"Fase II","esta_oper":1,"globalid":"{D28B8720-E3DB-4FE5-9B99-31A043E5D1E7}","tip_patio":1,"eta_oper":1,"tip_infra":1,"area_ha":3.7,"latitud":4.59853433,"longitud":-74.16913267,"cap_eq_bia":120,"cap_eq_pad":0,"uso_bia_eq":164,"uso_pad_eq":0,"created_user":null,"created_date":null,"last_edited_user":"editorInfraSTS","last_edited_date":"2026-06-02T13:58:26Z","Shape__Area":37699.264334983287,"Shape__Length":779.49511291638873},"geometry":{"type":"Polygon","coordinates":[[[-74.16988176620967,4.599255479201127],[-74.170353823984783,4.597975712557248],[-74.170308355214146,4.597809532540258],[-74.170246306832993,4.597766074963835],[-74.169253228011527,4.597745328473959],[-74.168579538097575,4.597703472125065],[-74.168479815592278,4.597889043852218],[-74.16825901261835,4.598299928080177],[-74.167857985733235,4.599077437871175],[-74.167956627104985,4.599334648180641],[-74.16988176620967,4.599255479201127]]]}},
{"type":"Feature","properties":{"cont_oper":"CTO 693-2018","id_conces":"218","nom_conses":"Si-18 Suba","nom_func":"SUBA TRONCAL","comp_sitp":1,"objectid":131,"id_patio":"PT009","nom_patio":"Patio Suba","direccion":"CL 145 103B 08","chip":" ","est_ener":"Gnv-diesel sin operar","fase_impl":"Fase IV","esta_oper":1,"globalid":"{069FEDDC-0963-46F8-8131-5882D9013C68}","tip_patio":1,"eta_oper":1,"tip_infra":1,"area_ha":6.3,"latitud":4.7470442,"longitud":-74.09306959,"cap_eq_bia":130,"cap_eq_pad":0,"uso_bia_eq":129,"uso_pad_eq":0,"created_user":null,"created_date":null,"last_edited_user":"editorInfraSTS","last_edited_date":"2026-06-02T13:58:27Z","Shape__Area":56466.239669012146,"Shape__Length":1391.9517066396718},"geometry":{"type":"Polygon","coordinates":[[[-74.093668806994017,4.746134546523407],[-74.093600031792135,4.745767276390421],[-74.09344262506059,4.745702679042646],[-74.093360335018858,4.745350961469274],[-74.093084887937678,4.745702689920822],[-74.093192210659581,4.745752931707655],[-74.093140566132462,4.745927535624642],[-74.092997797962639,4.745946572702821],[-74.092919275805315,4.74595609139023],[-74.0926266021213,4.745863293327931],[-74.092141191675424,4.745684836032979],[-74.091786651129212,4.745565864651533],[-74.091691472579569,4.745544449904028],[-74.091593916198192,4.745568244226491],[-74.091513014715858,4.745682459883691],[-74.091363110383199,4.746067932028636],[-74.091291725864764,4.746239254472067],[-74.091272690817192,4.746351088724221],[-74.091306004460364,4.746453405001187],[-74.091377388577058,4.746531927283674],[-74.091427357622976,4.746567619285623],[-74.091731929230605,4.746679451468322],[-74.092555223383684,4.746993536996364],[-74.092909763993831,4.747117267344467],[-74.093197679029146,4.747214822950099],[-74.093397553441875,4.747293344800508],[-74.09350462988445,4.747362349107848],[-74.093509390578461,4.747421834327638],[-74.093480836907545,4.747559844029423],[-74.093371383324211,4.747878692623668],[-74.093319035474408,4.748047634692313],[-74.093252410890145,4.748233232612521],[-74.093195304919519,4.748378380647396],[-74.093161993608206,4.748475938066181],[-74.093147717758512,4.748571115819588],[-74.093169132917168,4.74864963813728],[-74.093219100996961,4.748711504274318],[-74.093276208085427,4.748773369340167],[-74.093576021437272,4.748916136251473],[-74.093885352568691,4.749054144341118],[-74.094120919284975,4.7491445612885],[-74.094182785196793,4.749180252800515],[-74.094301758469797,4.749208806126623],[-74.094532562439554,4.748604422128572],[-74.094263683054024,4.748356959618496],[-74.094199436304237,4.748157085769781],[-74.094009076609169,4.747471802716129],[-74.093849649537717,4.746836487264853],[-74.093668806994017,4.746134546523407]]]}},
{"type":"Feature","properties":{"cont_oper":"CTO 688-2018","id_conces":"214","nom_conses":"Somos Bogota Usme","nom_func":"USME TRONCAL","comp_sitp":1,"objectid":132,"id_patio":"PT004","nom_patio":"Patio Usme","direccion":"CL 53 SUR Avenida Caracas","chip":"AAA0239YULW","est_ener":"Gnv-diesel","fase_impl":"Fase IV","esta_oper":1,"globalid":"{F6623CB9-74D3-42FC-B3AF-928E6BAA71D4}","tip_patio":1,"eta_oper":1,"tip_infra":1,"area_ha":4.8,"latitud":4.53029805,"longitud":-74.12000118,"cap_eq_bia":111,"cap_eq_pad":0,"uso_bia_eq":160,"uso_pad_eq":0,"created_user":null,"created_date":null,"last_edited_user":"editorInfraSTS","last_edited_date":"2026-06-02T13:58:27Z","Shape__Area":51141.729785975171,"Shape__Length":1413.1107290940613},"geometry":{"type":"Polygon","coordinates":[[[-74.120100494311174,4.53316358843694],[-74.12017425736569,4.533125516144901],[-74.120245638793548,4.532857826381091],[-74.120313452684115,4.532636537095127],[-74.120420527567845,4.532375984743062],[-74.120520464867425,4.532286753901571],[-74.120616832563329,4.532208231223764],[-74.120756030074034,4.532097585694395],[-74.12088095204895,4.532001217377109],[-74.120916643232036,4.531908418300066],[-74.120930919231157,4.531812050282483],[-74.120930918707927,4.531637159856995],[-74.120067172524642,4.531308798388643],[-74.119995784962853,4.530559268551496],[-74.119985078363072,4.530520007546355],[-74.119952953150019,4.530077428007962],[-74.119885138213519,4.53007742836953],[-74.119870861082376,4.529970352266456],[-74.119956521199185,4.529963214023754],[-74.120795281275065,4.529863272107955],[-74.120905925612078,4.529781180117237],[-74.120955893574944,4.529713366332956],[-74.120952324717621,4.529584875486043],[-74.120880939546339,4.529417124362304],[-74.120638232020056,4.528995959813575],[-74.120474049522997,4.528838915810474],[-74.120409803397209,4.528767533188194],[-74.120184942298152,4.528414183628072],[-74.120102851649392,4.528374923214284],[-74.119995775402074,4.528357077478075],[-74.119892269492055,4.528357079030668],[-74.11951393428096,4.528357079403357],[-74.119353320983464,4.528364219220514],[-74.119260522909272,4.528410618535366],[-74.11921412343591,4.528449880137161],[-74.119192708105416,4.528567663570183],[-74.119178434229539,4.528924583020104],[-74.119178435456192,4.529481375528882],[-74.119228405466131,4.529666974669396],[-74.119310496627733,4.529791895286437],[-74.119374743684233,4.529895401900682],[-74.119406867435586,4.530130968947024],[-74.119453267726797,4.530370103579312],[-74.119531791222386,4.530505733244244],[-74.119613882587615,4.530662777717967],[-74.119663853507348,4.531187448814759],[-74.119695979661614,4.531555074408279],[-74.119728102755261,4.531822762609341],[-74.119749519648082,4.532197529270908],[-74.119791161193206,4.532464027736414],[-74.119836372095477,4.532606796141033],[-74.120019591464654,4.532966093160274],[-74.120100494311174,4.53316358843694]]]}},
{"type":"Feature","properties":{"cont_oper":"CTO 695-2018","id_conces":"217","nom_conses":"Si-18 Norte","nom_func":"AUTOPISTA NORTE TRONCAL","comp_sitp":1,"objectid":133,"id_patio":"PT012","nom_patio":"Patio Temporal Norte","direccion":"TV 94 L 80 00","chip":" ","est_ener":"Gnv","fase_impl":"Fase IV","esta_oper":1,"globalid":"{5FE06F24-F54E-4304-A8A7-A10D07A03D46}","tip_patio":2,"eta_oper":1,"tip_infra":1,"area_ha":3.2,"latitud":4.70935822,"longitud":-74.10927442000001,"cap_eq_bia":93,"cap_eq_pad":0,"uso_bia_eq":105,"uso_pad_eq":0,"created_user":null,"created_date":null,"last_edited_user":"editorInfraSTS","last_edited_date":"2026-06-02T13:58:28Z","Shape__Area":31229.855041815841,"Shape__Length":856.66697830202224},"geometry":{"type":"Polygon","coordinates":[[[-74.109074145297555,4.710858793628334],[-74.109319772875978,4.710340529796222],[-74.109491091723186,4.710014543283476],[-74.109719517906001,4.709562443795878],[-74.109828972823834,4.709348292225593],[-74.109928908098695,4.709122243098951],[-74.110064537020804,4.708931886233581],[-74.110257273513284,4.708641590658878],[-74.110145437174808,4.708539274353071],[-74.110100227625054,4.708494064682753],[-74.109781378783097,4.708296571413466],[-74.109695717375232,4.708194253818828],[-74.109500599983761,4.708022934403595],[-74.109393524026245,4.707925377128635],[-74.109226961354437,4.707739780012174],[-74.10906234417449,4.707801405246928],[-74.109100255070331,4.70787713752701],[-74.109151569028867,4.708056781437715],[-74.109171893222836,4.708215507394017],[-74.109171454294838,4.708355560330856],[-74.109141380215689,4.708553216331448],[-74.109077552479519,4.708742631093576],[-74.108791942410619,4.709190861612985],[-74.108670176628564,4.709564828332924],[-74.10862734718576,4.709836089227934],[-74.10862021051426,4.710102587340367],[-74.108491720278352,4.710430952776965],[-74.108460282480351,4.710553521384396],[-74.108488905141868,4.710649224844716],[-74.109028836565244,4.710894684958819],[-74.109074145297555,4.710858793628334]]]}},
{"type":"Feature","properties":{"cont_oper":"CTO 697-2018","id_conces":"216","nom_conses":"Si-18 Calle 80","nom_func":"AUTOPISTA MEDELLIN TRONCAL","comp_sitp":1,"objectid":134,"id_patio":"PT008","nom_patio":"Patio Temporal Calle 80","direccion":"AC 80 96 91","chip":"AAA0008BETD","est_ener":"Gnv","fase_impl":"Fase IV","esta_oper":1,"globalid":"{97865543-4CE6-4608-A314-1EBC5B07AF2F}","tip_patio":2,"eta_oper":1,"tip_infra":1,"area_ha":1.7,"latitud":4.70685191,"longitud":-74.11048379,"cap_eq_bia":40,"cap_eq_pad":0,"uso_bia_eq":24,"uso_pad_eq":0,"created_user":null,"created_date":null,"last_edited_user":"editorInfraSTS","last_edited_date":"2026-06-02T13:58:28Z","Shape__Area":16861.859728682775,"Shape__Length":540.98761152764553},"geometry":{"type":"Polygon","coordinates":[[[-74.110435099603961,4.707864908171901],[-74.111200077123442,4.706370877592081],[-74.111242619028275,4.706255323031244],[-74.110885830945477,4.706150057959552],[-74.110487066875379,4.706023741494735],[-74.110041087335929,4.706650879418219],[-74.109826473899062,4.706995430836495],[-74.109790706835923,4.707067213767163],[-74.109855103780021,4.707246659883118],[-74.110435099603961,4.707864908171901]]]}},
{"type":"Feature","properties":{"cont_oper":"CTO 754-2018","id_conces":"219","nom_conses":"Capitalbus","nom_func":"AMERICAS TRONCAL","comp_sitp":1,"objectid":136,"id_patio":"PT013","nom_patio":"Patio Americas","direccion":"AK 86 43 55 SUR","chip":"AAA0172TDWF","est_ener":"Gnv-diesel sin operar","fase_impl":"Fase IV","esta_oper":1,"globalid":"{18926116-319A-45D2-88E1-D7B9349E6538}","tip_patio":1,"eta_oper":1,"tip_infra":1,"area_ha":5.7,"latitud":4.63186239,"longitud":-74.17432382,"cap_eq_bia":130,"cap_eq_pad":0,"uso_bia_eq":148,"uso_pad_eq":0,"created_user":null,"created_date":null,"last_edited_user":"editorInfraSTS","last_edited_date":"2026-06-02T13:58:29Z","Shape__Area":48410.856384935483,"Shape__Length":867.43856828708624},"geometry":{"type":"Polygon","coordinates":[[[-74.175200531870601,4.630799397381998],[-74.174840883763963,4.630714992646764],[-74.17380030892383,4.631206524841944],[-74.173501923851788,4.631467615001681],[-74.173241758536122,4.631429262352218],[-74.173035153899249,4.631398579052622],[-74.172866839065961,4.631575195234984],[-74.173178314985563,4.632220231140533],[-74.173552664887652,4.63292738527689],[-74.173861776095904,4.633018498461212],[-74.174083674900814,4.632980077553904],[-74.174818199590419,4.632626790833325],[-74.175598589080991,4.631951024955316],[-74.175681080926466,4.631694294667838],[-74.175200531870601,4.630799397381998]]]}},
{"type":"Feature","properties":{"cont_oper":"CTO 691-2018","id_conces":"215","nom_conses":"Bmo","nom_func":"TUNAL TRONCAL","comp_sitp":1,"objectid":137,"id_patio":"PT011","nom_patio":"Patio Temporal Laguna I","direccion":"KR 51 58 49 SUR","chip":"AAA0181UTTD","est_ener":"Gnv-diesel","fase_impl":"Fase IV","esta_oper":1,"globalid":"{E70C48AD-3B08-4D0B-95BE-66EB8DA4C5BB}","tip_patio":2,"eta_oper":1,"tip_infra":1,"area_ha":5.3,"latitud":4.57970026,"longitud":-74.14603436,"cap_eq_bia":182,"cap_eq_pad":0,"uso_bia_eq":275,"uso_pad_eq":0,"created_user":null,"created_date":null,"last_edited_user":"editorInfraSTS","last_edited_date":"2026-06-02T13:58:33Z","Shape__Area":97128.875362464765,"Shape__Length":1679.8197370256926},"geometry":{"type":"Polygon","coordinates":[[[-74.146258116550172,4.580232331466596],[-74.146497769521929,4.580254607785945],[-74.146609358723069,4.580259860099657],[-74.146641785139835,4.580254592971253],[-74.146719514700266,4.580242622322299],[-74.146796289869357,4.580230173376938],[-74.146920313389742,4.580206671871741],[-74.14703101647595,4.580246601816056],[-74.147106269238961,4.580268145128114],[-74.147344713047261,4.580338703343841],[-74.147419827303494,4.5804092792771],[-74.147571247211772,4.580550431002105],[-74.147584367202882,4.580594693925572],[-74.147593913611615,4.580680827697301],[-74.147593916756364,4.580713130586083],[-74.147583191804387,4.58075859134548],[-74.147452059065188,4.58083995418524],[-74.147506910920427,4.580942833169842],[-74.147640431271185,4.580911715406845],[-74.147862185980699,4.58099543551782],[-74.148470218363542,4.581189178280842],[-74.148718165625652,4.580933137796453],[-74.148815911112806,4.580811101250913],[-74.148863575393719,4.580595758376171],[-74.14845345120321,4.580440276711534],[-74.14880388096293,4.579760725479593],[-74.148586897189631,4.579693753017106],[-74.148515363114115,4.5796674401554],[-74.148276918087618,4.579574151568451],[-74.148117160236737,4.579511959813631],[-74.148002703878731,4.579444977945053],[-74.147937762357969,4.579395458852527],[-74.147867988490134,4.579352395200639],[-74.147840566044067,4.579336247809515],[-74.147757705861764,4.5792982721824],[-74.147472763469239,4.579188405539409],[-74.147247812110393,4.579105775300646],[-74.146552746858333,4.578839063777236],[-74.145740843650685,4.578526903915659],[-74.145477365722613,4.578462329546647],[-74.145215593661405,4.578473428565884],[-74.1445374496586,4.578647095731471],[-74.143983891163003,4.579091570128986],[-74.143222741070787,4.579640224462103],[-74.14307052612196,4.579911058776488],[-74.143132816315813,4.580022158518724],[-74.143097738737069,4.580107743015723],[-74.143021452658161,4.580256757851405],[-74.144710780522658,4.580293576534078],[-74.145172797611153,4.580330509329697],[-74.145243658151273,4.580324813600047],[-74.145253890856821,4.580151146044818],[-74.145293364707058,4.580158132627272],[-74.145329464707686,4.580157064830027],[-74.145373298254697,4.580171695134882],[-74.145424085387049,4.580178151614288],[-74.145607920489667,4.580190334187814],[-74.146201617949757,4.580227752944825],[-74.146258116550172,4.580232331466596]]]}},
{"type":"Feature","properties":{"cont_oper":"CTO 691-2018","id_conces":"215","nom_conses":"Bmo","nom_func":"TUNAL TRONCAL","comp_sitp":1,"objectid":138,"id_patio":"PT010","nom_patio":"Patio Tunal","direccion":"CL 48 SUR 23 35","chip":"AAA0045YBCX","est_ener":"Diesel","fase_impl":"Fase IV","esta_oper":1,"globalid":"{5A0EBC60-B1A5-4798-B9AD-866A105FE19C}","tip_patio":1,"eta_oper":1,"tip_infra":1,"area_ha":2.2,"latitud":4.57125098,"longitud":-74.140271219999988,"cap_eq_bia":63,"cap_eq_pad":0,"uso_bia_eq":95,"uso_pad_eq":0,"created_user":null,"created_date":null,"last_edited_user":"editorInfraSTS","last_edited_date":"2026-06-02T13:58:34Z","Shape__Area":21662.943110324501,"Shape__Length":785.10843013553381},"geometry":{"type":"Polygon","coordinates":[[[-74.140382577837102,4.572437772776995],[-74.140861810764761,4.572236745569406],[-74.140904722095271,4.572172138683262],[-74.140826024323871,4.572007052778829],[-74.140718715650294,4.571863502848917],[-74.140754462484168,4.571662516521816],[-74.140804523441247,4.571554842091333],[-74.140890350080142,4.571461519530269],[-74.140990481655919,4.571346663136556],[-74.140954699009896,4.571160039073749],[-74.140876002872275,4.571002129782732],[-74.140818768469387,4.570901644159076],[-74.140725777498602,4.570880117102099],[-74.140611333993689,4.570916019304911],[-74.140575571193224,4.570944734336337],[-74.140468266488313,4.570844253089639],[-74.140360963965009,4.570758127767307],[-74.140253666461078,4.570729425289193],[-74.140182139531319,4.570750965913844],[-74.139924536879988,4.569717360600928],[-74.139616991498997,4.570061930830787],[-74.13956693293342,4.570198317067171],[-74.139853145974044,4.571239097528695],[-74.139879982321816,4.571361122049927],[-74.139981914726889,4.571404180087191],[-74.140132185511746,4.572028651757633],[-74.140132193613582,4.572121965824798],[-74.140067827792308,4.572243996494649],[-74.140189450755685,4.572473680913289],[-74.140382577837102,4.572437772776995]]]}},
{"type":"Feature","properties":{"cont_oper":"No Aplica","id_conces":" ","nom_conses":"No Aplica","nom_func":"NO APLICA","comp_sitp":1,"objectid":140,"id_patio":"PT016","nom_patio":"Patio De La Hoja","direccion":"AK 30 19 43","chip":"AAA0217OWYX","est_ener":"Sin eds","fase_impl":"No aplica","esta_oper":1,"globalid":"{F55C19FA-2424-48C1-9396-B9775BB2978F}","tip_patio":4,"eta_oper":1,"tip_infra":2,"area_ha":1.3,"latitud":4.62005847,"longitud":-74.088062979999989,"cap_eq_bia":40,"cap_eq_pad":0,"uso_bia_eq":0,"uso_pad_eq":0,"created_user":null,"created_date":null,"last_edited_user":"editorInfraSTS","last_edited_date":"2026-06-02T13:58:35Z","Shape__Area":13782.034527325437,"Shape__Length":473.58151320289585},"geometry":{"type":"Polygon","coordinates":[[[-74.088184768136884,4.620795663293126],[-74.088260326755616,4.620730180121496],[-74.088301537909899,4.620547525046073],[-74.088315274495002,4.620495829925267],[-74.088600336614476,4.62016497808663],[-74.088617507574895,4.620102944827631],[-74.088772059331262,4.61992717878306],[-74.088074832235449,4.619275839042198],[-74.08733298751396,4.620175342097548],[-74.087868785434907,4.620630245170695],[-74.088019909294118,4.620764648810605],[-74.088109207783873,4.620806001600904],[-74.088184768136884,4.620795663293126]]]}},
{"type":"Feature","properties":{"cont_oper":"No Aplica","id_conces":" ","nom_conses":"No Aplica","nom_func":"NO APLICA","comp_sitp":1,"objectid":141,"id_patio":"PT015","nom_patio":"Patio Calle 6","direccion":"AC 6 15 33","chip":"No definido","est_ener":"Sin eds","fase_impl":"No aplica","esta_oper":1,"globalid":"{C327E82C-28BE-4CB9-B0C6-162FB47357F1}","tip_patio":4,"eta_oper":1,"tip_infra":2,"area_ha":1.11,"latitud":4.59814777,"longitud":-74.08719184,"cap_eq_bia":25,"cap_eq_pad":0,"uso_bia_eq":21,"uso_pad_eq":0,"created_user":null,"created_date":null,"last_edited_user":"editorInfraSTS","last_edited_date":"2026-06-02T13:58:35Z","Shape__Area":10571.237773996496,"Shape__Length":678.02077381075947},"geometry":{"type":"Polygon","coordinates":[[[-74.088091795853927,4.598982107414415],[-74.088151407055548,4.598961170820168],[-74.088100736607885,4.598919300164091],[-74.088264658227217,4.598566378550314],[-74.088185922506739,4.598509805129105],[-74.086445278227956,4.597534827993327],[-74.085992432434836,4.597276028730462],[-74.085891095822561,4.59728500250519],[-74.08584459896602,4.597312519429805],[-74.085843408169566,4.597362765682831],[-74.085876194429162,4.597428562975861],[-74.088091795853927,4.598982107414415]]]}}
]
}
